{"type": "FeatureCollection", "features": [{"type": "Feature", "geometry": {"type": "MultiLineString", "coordinates": [[[141.35208, 43.07888], [141.35214, 43.07872]], [[141.35254, 43.07768], [141.35234, 43.07815], [141.35214, 43.07872]], [[141.35205, 43.0782], [141.35189, 43.07868]], [[141.35205, 43.0782], [141.35228, 43.07764], [141.35256, 43.07708], [141.35277, 43.07665], [141.35282, 43.07653], [141.35286, 43.07646], [141.35301, 43.07596], [141.35317, 43.0754], [141.35332, 43.07482], [141.35347, 43.07425], [141.35363, 43.07366], [141.35373, 43.07324], [141.35379, 43.07311], [141.35398, 43.07248], [141.3541, 43.07197], [141.35425, 43.07137], [141.35434, 43.07109], [141.3544, 43.07083]], [[141.35254, 43.07768], [141.35259, 43.07758], [141.35282, 43.07712], [141.35311, 43.07663]], [[141.3537, 43.07546], [141.35359, 43.07559], [141.35341, 43.07604], [141.35314, 43.07657], [141.35311, 43.07663]], [[141.3537, 43.07546], [141.35385, 43.0748], [141.35398, 43.07432], [141.35428, 43.07316], [141.35443, 43.07253], [141.35456, 43.07203], [141.35468, 43.07152], [141.35478, 43.07112], [141.35485, 43.07089]]]}, "properties": {"section_id": "01300051000", "route": "一般国道５号", "n_lanes": 6.0, "w_carriageway": 22.5, "speed_limit": 50, "heavy_pct": 5.5, "v_peak_up": 17.2, "v_off_up": 18.9, "v12h": 27565.0, "congestion": 1.2, "right_turn_lane": 4.0, "in_cordon": false}}, {"type": "Feature", "geometry": {"type": "MultiLineString", "coordinates": [[[141.35485, 43.07089], [141.35514, 43.06976]], [[141.3544, 43.07083], [141.35456, 43.07026], [141.35471, 43.06969], [141.35486, 43.06911], [141.35489, 43.06895], [141.35491, 43.06889]], [[141.35532, 43.06901], [141.35514, 43.06976]], [[141.35532, 43.06901], [141.35533, 43.06893], [141.35535, 43.06889]]]}, "properties": {"section_id": "01300051010", "route": "一般国道５号", "n_lanes": 8.0, "w_carriageway": 32.0, "speed_limit": 50, "heavy_pct": 5.5, "v_peak_up": 9.9, "v_off_up": 11.3, "v12h": 27565.0, "congestion": 0.92, "right_turn_lane": 1.0, "in_cordon": false}}, {"type": "Feature", "geometry": {"type": "MultiLineString", "coordinates": [[[141.35535, 43.06889], [141.3554, 43.06869], [141.35543, 43.06859]], [[141.35491, 43.06889], [141.35495, 43.06876], [141.35497, 43.06868], [141.35498, 43.06863]]]}, "properties": {"section_id": "01300051010", "route": "一般国道５号", "n_lanes": 8.0, "w_carriageway": 32.0, "speed_limit": 50, "heavy_pct": 5.5, "v_peak_up": 9.9, "v_off_up": 11.3, "v12h": 27565.0, "congestion": 0.92, "right_turn_lane": 1.0, "in_cordon": false}}, {"type": "Feature", "geometry": {"type": "MultiLineString", "coordinates": [[[141.35529, 43.0674], [141.35507, 43.06823], [141.35498, 43.06863]], [[141.35572, 43.06746], [141.35549, 43.06829], [141.35544, 43.0685], [141.35543, 43.06859]], [[141.35572, 43.06746], [141.35599, 43.06629], [141.3561, 43.0659], [141.3562, 43.06552]], [[141.35529, 43.0674], [141.35559, 43.06622], [141.3557, 43.06583], [141.3559, 43.06502], [141.35599, 43.06494], [141.35608, 43.06458], [141.35625, 43.06397], [141.35654, 43.06283]], [[141.35631, 43.06507], [141.3562, 43.06552]], [[141.35631, 43.06507], [141.35626, 43.06494], [141.35637, 43.06458], [141.35652, 43.064], [141.3568, 43.06286]]]}, "properties": {"section_id": "01300051020", "route": "一般国道５号", "n_lanes": 8.0, "w_carriageway": 32.0, "speed_limit": 50, "heavy_pct": 5.5, "v_peak_up": 10.9, "v_off_up": 15.6, "v12h": 27565.0, "congestion": 1.19, "right_turn_lane": 1.0, "in_cordon": true}}, {"type": "Feature", "geometry": {"type": "MultiLineString", "coordinates": [[[141.35683, 43.06274], [141.35694, 43.06276]], [[141.35657, 43.0627], [141.35683, 43.06274]], [[141.35488, 43.06248], [141.35645, 43.06269], [141.35657, 43.0627]], [[141.35488, 43.06248], [141.35405, 43.06238]], [[141.35178, 43.06207], [141.35327, 43.06227], [141.35405, 43.06238]]]}, "properties": {"section_id": "01300120010", "route": "一般国道１２号", "n_lanes": 4.0, "w_carriageway": 16.0, "speed_limit": 50, "heavy_pct": 11.9, "v_peak_up": 12.9, "v_off_up": 14.0, "v12h": 26291.0, "congestion": 1.4, "right_turn_lane": 3.0, "in_cordon": true}}, {"type": "Feature", "geometry": {"type": "MultiLineString", "coordinates": [[[141.35694, 43.06276], [141.3577, 43.06286], [141.35849, 43.06297], [141.35924, 43.06307], [141.36005, 43.06318], [141.3608, 43.06328], [141.36151, 43.06337], [141.36167, 43.0634], [141.36331, 43.06363], [141.36402, 43.06373], [141.3647, 43.06382], [141.36478, 43.06383], [141.36515, 43.06388], [141.36632, 43.06403]]]}, "properties": {"section_id": "01300120020", "route": "一般国道１２号", "n_lanes": 4.0, "w_carriageway": 16.0, "speed_limit": 50, "heavy_pct": 11.9, "v_peak_up": 17.3, "v_off_up": 19.7, "v12h": 26291.0, "congestion": 1.4, "right_turn_lane": 3.0, "in_cordon": true}}, {"type": "Feature", "geometry": {"type": "MultiLineString", "coordinates": [[[141.35338, 43.05577], [141.3533, 43.05616], [141.35315, 43.05673], [141.35301, 43.05727], [141.35288, 43.05787], [141.35271, 43.05844], [141.35257, 43.05902], [141.35243, 43.05959], [141.35228, 43.06017], [141.3521, 43.0609], [141.35178, 43.06207]], [[141.35324, 43.05567], [141.35312, 43.05613], [141.35297, 43.0567], [141.35285, 43.05726], [141.35269, 43.05785], [141.35254, 43.05843], [141.35239, 43.05899], [141.35227, 43.05957], [141.35211, 43.06015], [141.35193, 43.06088], [141.35166, 43.06197]], [[141.35341, 43.05562], [141.35324, 43.05567]]]}, "properties": {"section_id": "01300360010", "route": "一般国道３６号", "n_lanes": 6.0, "w_carriageway": 23.5, "speed_limit": 40, "heavy_pct": 4.4, "v_peak_up": 10.1, "v_off_up": 10.0, "v12h": 9423.0, "congestion": 0.39, "right_turn_lane": 1.0, "in_cordon": true}}, {"type": "Feature", "geometry": {"type": "MultiLineString", "coordinates": [[[141.35338, 43.05577], [141.35489, 43.05597], [141.35646, 43.05618], [141.35727, 43.0563], [141.35803, 43.05639]], [[141.35846, 43.05629], [141.35857, 43.05631]], [[141.3582, 43.05625], [141.35846, 43.05629]], [[141.35807, 43.05623], [141.3582, 43.05625]], [[141.35341, 43.05562], [141.35489, 43.0558], [141.35651, 43.05602], [141.3573, 43.05613], [141.35768, 43.05618], [141.35807, 43.05623]]]}, "properties": {"section_id": "01300360020", "route": "一般国道３６号", "n_lanes": 6.0, "w_carriageway": 23.5, "speed_limit": 40, "heavy_pct": 6.2, "v_peak_up": 14.8, "v_off_up": 17.0, "v12h": 20489.0, "congestion": 0.69, "right_turn_lane": 1.0, "in_cordon": true}}, {"type": "Feature", "geometry": {"type": "MultiLineString", "coordinates": [[[141.35842, 43.05645], [141.35852, 43.05647], [141.35929, 43.05658], [141.36006, 43.05668], [141.36083, 43.05678], [141.3615, 43.05688], [141.36161, 43.05689], [141.36185, 43.05689], [141.36205, 43.05688], [141.36223, 43.05686], [141.36241, 43.05683], [141.36277, 43.05674], [141.3631, 43.05663]], [[141.35857, 43.05631], [141.35932, 43.05641], [141.36008, 43.05652], [141.36086, 43.05663], [141.36148, 43.05671], [141.36164, 43.05672], [141.36193, 43.05673], [141.36215, 43.05671], [141.36248, 43.05667], [141.36275, 43.0566], [141.36302, 43.05649]], [[141.3638, 43.05616], [141.36373, 43.05625], [141.36338, 43.05647], [141.3631, 43.05663]], [[141.3638, 43.05616], [141.36363, 43.05615], [141.36324, 43.05638], [141.36302, 43.05649]], [[141.35816, 43.05641], [141.35842, 43.05645]], [[141.35803, 43.05639], [141.35816, 43.05641]], [[141.3638, 43.05616], [141.36389, 43.05609], [141.36402, 43.05602], [141.36435, 43.05579]]]}, "properties": {"section_id": "01300360030", "route": "一般国道３６号", "n_lanes": 8.0, "w_carriageway": 31.4, "speed_limit": 40, "heavy_pct": 4.9, "v_peak_up": 16.8, "v_off_up": 18.3, "v12h": 30220.0, "congestion": 0.78, "right_turn_lane": 1.0, "in_cordon": true}}, {"type": "Feature", "geometry": {"type": "MultiLineString", "coordinates": [[[141.36525, 43.05524], [141.36505, 43.05537], [141.36493, 43.05544], [141.36484, 43.05551], [141.36435, 43.05579]], [[141.36525, 43.05524], [141.36621, 43.05462]], [[141.36685, 43.05423], [141.36649, 43.05447], [141.36621, 43.05462]], [[141.36685, 43.05423], [141.36762, 43.05376]], [[141.36829, 43.05333], [141.368, 43.05352], [141.36762, 43.05376]]]}, "properties": {"section_id": "01300360040", "route": "一般国道３６号", "n_lanes": 4.0, "w_carriageway": 16.0, "speed_limit": 50, "heavy_pct": 5.5, "v_peak_up": 17.9, "v_off_up": 22.7, "v12h": 26796.0, "congestion": 1.07, "right_turn_lane": 1.0, "in_cordon": false}}, {"type": "Feature", "geometry": {"type": "MultiLineString", "coordinates": [[[141.35178, 43.06207], [141.35163, 43.06209]], [[141.34548, 43.06123], [141.34564, 43.06129], [141.34702, 43.06148], [141.34859, 43.06169], [141.35013, 43.06191], [141.35163, 43.06209]], [[141.35178, 43.06207], [141.35166, 43.06197]], [[141.34548, 43.06123], [141.34563, 43.06118], [141.34703, 43.06136], [141.3486, 43.06157], [141.35016, 43.06178], [141.35166, 43.06197]], [[141.34236, 43.06077], [141.34392, 43.061], [141.34548, 43.06123]], [[141.34236, 43.06077], [141.34156, 43.06066], [141.34078, 43.06056]]]}, "properties": {"section_id": "01302300010", "route": "一般国道２３０号", "n_lanes": 4.0, "w_carriageway": 23.0, "speed_limit": 50, "heavy_pct": 8.3, "v_peak_up": 14.3, "v_off_up": 16.7, "v12h": 23401.0, "congestion": 1.32, "right_turn_lane": 1.0, "in_cordon": true}}, {"type": "Feature", "geometry": {"type": "MultiLineString", "coordinates": [[[141.34217, 43.05451], [141.34204, 43.05521], [141.34192, 43.05579], [141.34178, 43.05636], [141.34165, 43.05693], [141.34152, 43.05751], [141.34137, 43.05808], [141.34123, 43.05867], [141.34119, 43.05943], [141.34091, 43.06044], [141.34078, 43.06056]], [[141.34195, 43.05443], [141.34183, 43.05518], [141.34169, 43.05576], [141.34157, 43.05632], [141.34142, 43.0569], [141.34128, 43.05747], [141.34114, 43.05806], [141.34101, 43.05864], [141.34098, 43.0594], [141.34073, 43.06041], [141.34078, 43.06056]]]}, "properties": {"section_id": "01302300020", "route": "一般国道２３０号", "n_lanes": 6.0, "w_carriageway": 30.5, "speed_limit": 50, "heavy_pct": 6.2, "v_peak_up": 15.5, "v_off_up": 16.6, "v12h": 23450.0, "congestion": 0.88, "right_turn_lane": 2.0, "in_cordon": true}}, {"type": "Feature", "geometry": {"type": "MultiLineString", "coordinates": [[[141.3422, 43.05434], [141.34217, 43.05451]], [[141.34195, 43.05443], [141.34195, 43.05433], [141.342, 43.05417]], [[141.3422, 43.05434], [141.34223, 43.05416]], [[141.34215, 43.05288], [141.34212, 43.05305], [141.34207, 43.0534], [141.342, 43.05417]], [[141.34238, 43.05303], [141.34235, 43.0532], [141.34232, 43.0534], [141.34226, 43.0539], [141.34223, 43.05416]], [[141.34238, 43.05303], [141.34241, 43.05267]], [[141.34215, 43.05288], [141.34217, 43.0527]], [[141.34232, 43.05184], [141.34221, 43.05196], [141.34221, 43.05236], [141.34217, 43.0527]], [[141.34232, 43.05184], [141.34244, 43.05195], [141.34246, 43.05215], [141.34246, 43.05238], [141.34241, 43.05267]], [[141.34232, 43.05184], [141.34232, 43.05165], [141.34232, 43.05143], [141.34235, 43.05118], [141.34239, 43.0508], [141.34244, 43.05044], [141.34256, 43.04953], [141.34261, 43.04912], [141.34264, 43.04886], [141.34267, 43.04859], [141.34265, 43.04847]]]}, "properties": {"section_id": "01302300030", "route": "一般国道２３０号", "n_lanes": 6.0, "w_carriageway": 30.5, "speed_limit": 50, "heavy_pct": 6.2, "v_peak_up": 20.2, "v_off_up": 21.1, "v12h": 23450.0, "congestion": 0.88, "right_turn_lane": 2.0, "in_cordon": true}}, {"type": "Feature", "geometry": {"type": "MultiLineString", "coordinates": [[[141.34265, 43.04847], [141.34264, 43.04833], [141.34272, 43.0478], [141.34278, 43.04712], [141.34282, 43.04693], [141.34287, 43.04648], [141.34291, 43.04616], [141.34294, 43.04582], [141.34304, 43.04513], [141.34314, 43.04446], [141.34314, 43.04435]], [[141.3432, 43.04382], [141.34317, 43.04413], [141.34314, 43.04435]], [[141.3432, 43.04382], [141.34323, 43.04368], [141.34328, 43.04324], [141.34333, 43.04292], [141.34339, 43.04247], [141.34348, 43.04179], [141.34357, 43.04099], [141.3436, 43.04084], [141.34369, 43.04016], [141.34375, 43.03955], [141.34384, 43.03888], [141.34387, 43.03853], [141.34394, 43.03813], [141.34401, 43.03749], [141.34412, 43.03681], [141.34413, 43.03662], [141.34416, 43.03632], [141.34418, 43.03623], [141.34418, 43.03614], [141.34424, 43.03561], [141.34427, 43.03546], [141.3443, 43.03518], [141.34433, 43.035], [141.34436, 43.03479], [141.34445, 43.03413]]]}, "properties": {"section_id": "01302300040", "route": "一般国道２３０号", "n_lanes": 4.0, "w_carriageway": 16.0, "speed_limit": 50, "heavy_pct": 6.2, "v_peak_up": 22.1, "v_off_up": 27.5, "v12h": 23450.0, "congestion": 1.34, "right_turn_lane": 1.0, "in_cordon": false}}, {"type": "Feature", "geometry": {"type": "MultiLineString", "coordinates": [[[141.35051, 43.06676], [141.35062, 43.06665], [141.35074, 43.06619]], [[141.35051, 43.06676], [141.35047, 43.06663], [141.35059, 43.06617]], [[141.3515, 43.06322], [141.35118, 43.06439], [141.35105, 43.06498], [141.35089, 43.06559], [141.35074, 43.06619]], [[141.35135, 43.06319], [141.35106, 43.06437], [141.35074, 43.06557], [141.35059, 43.06617]], [[141.3515, 43.06322], [141.35163, 43.06265]], [[141.35135, 43.06319], [141.35163, 43.06209]], [[141.35178, 43.06207], [141.35163, 43.06265]]]}, "properties": {"section_id": "01400180010", "route": "札幌停車場線", "n_lanes": 4.0, "w_carriageway": 18.0, "speed_limit": 40, "heavy_pct": 7.1, "v_peak_up": 6.6, "v_off_up": 6.9, "v12h": 6405.0, "congestion": 0.49, "right_turn_lane": 2.0, "in_cordon": true}}, {"type": "Feature", "geometry": {"type": "MultiLineString", "coordinates": [[[141.32812, 43.05884], [141.32833, 43.05886], [141.32988, 43.05907], [141.33145, 43.05928], [141.333, 43.05949], [141.33457, 43.0597]]]}, "properties": {"section_id": "01401240070", "route": "宮の沢北１条線", "n_lanes": 4.0, "w_carriageway": 16.0, "speed_limit": 40, "heavy_pct": 4.7, "v_peak_up": 19.5, "v_off_up": 20.2, "v12h": 24034.0, "congestion": 1.21, "right_turn_lane": 2.0, "in_cordon": false}}, {"type": "Feature", "geometry": {"type": "MultiLineString", "coordinates": [[[141.33457, 43.0597], [141.33611, 43.05992], [141.33768, 43.06013], [141.33924, 43.06034], [141.34078, 43.06056]]]}, "properties": {"section_id": "01401240080", "route": "宮の沢北１条線", "n_lanes": 4.0, "w_carriageway": 16.0, "speed_limit": 40, "heavy_pct": 4.7, "v_peak_up": 21.0, "v_off_up": 22.6, "v12h": 24034.0, "congestion": 0.93, "right_turn_lane": 1.0, "in_cordon": true}}, {"type": "Feature", "geometry": {"type": "MultiLineString", "coordinates": [[[141.36219, 43.04857], [141.36211, 43.04842], [141.36182, 43.04769], [141.36157, 43.04693], [141.36147, 43.04652], [141.36139, 43.0461], [141.36127, 43.04546], [141.36078, 43.04237], [141.36069, 43.04197], [141.36051, 43.04143]], [[141.35868, 43.0389], [141.35944, 43.0399], [141.35991, 43.04051], [141.36028, 43.04101], [141.36051, 43.04143]], [[141.35868, 43.0389], [141.35823, 43.03827], [141.35802, 43.03792], [141.35773, 43.03737], [141.35758, 43.03712], [141.35736, 43.03653], [141.35718, 43.03592], [141.35704, 43.03525], [141.35703, 43.03508]]]}, "properties": {"section_id": "01509000050", "route": "真駒内篠路線", "n_lanes": 2.0, "w_carriageway": 8.25, "speed_limit": 50, "heavy_pct": 6.5, "v_peak_up": 26.4, "v_off_up": 31.7, "v12h": 10645.0, "congestion": 0.5, "right_turn_lane": 2.0, "in_cordon": false}}, {"type": "Feature", "geometry": {"type": "MultiLineString", "coordinates": [[[141.36219, 43.04857], [141.36243, 43.04912], [141.36254, 43.04938], [141.36325, 43.05101], [141.36356, 43.05179], [141.36368, 43.05214], [141.36356, 43.05217], [141.3629, 43.05232], [141.36281, 43.05234], [141.36273, 43.05235], [141.36235, 43.05244]]]}, "properties": {"section_id": "01509000060", "route": "真駒内篠路線", "n_lanes": 2.0, "w_carriageway": 8.25, "speed_limit": 50, "heavy_pct": 8.0, "v_peak_up": 14.3, "v_off_up": 18.4, "v12h": 11975.0, "congestion": 0.6, "right_turn_lane": 2.0, "in_cordon": false}}, {"type": "Feature", "geometry": {"type": "MultiLineString", "coordinates": [[[141.36017, 43.05294], [141.36051, 43.05286], [141.36235, 43.05244]]]}, "properties": {"section_id": "01509000070", "route": "真駒内篠路線", "n_lanes": 4.0, "w_carriageway": 13.0, "speed_limit": 40, "heavy_pct": 8.0, "v_peak_up": 13.7, "v_off_up": 24.9, "v12h": 11975.0, "congestion": 0.36, "right_turn_lane": 2.0, "in_cordon": true}}, {"type": "Feature", "geometry": {"type": "MultiLineString", "coordinates": [[[141.35883, 43.05512], [141.35886, 43.05523], [141.35857, 43.05631]], [[141.35843, 43.05507], [141.35834, 43.05515], [141.35807, 43.05623]], [[141.35883, 43.05512], [141.3591, 43.05398], [141.3591, 43.05378], [141.35912, 43.05359], [141.35916, 43.05348]], [[141.35843, 43.05507], [141.35871, 43.05392], [141.35877, 43.05381], [141.35889, 43.05339], [141.35903, 43.05324], [141.35916, 43.0531], [141.35932, 43.05305], [141.35955, 43.05298]], [[141.36017, 43.05294], [141.36008, 43.05301], [141.35947, 43.05313], [141.35938, 43.05318], [141.3593, 43.05324], [141.35924, 43.05336], [141.35916, 43.05348]], [[141.36017, 43.05294], [141.35996, 43.05289], [141.35955, 43.05298]]]}, "properties": {"section_id": "01509000080", "route": "真駒内篠路線", "n_lanes": 4.0, "w_carriageway": 20.0, "speed_limit": 50, "heavy_pct": 8.0, "v_peak_up": 15.0, "v_off_up": 20.2, "v12h": 29445.0, "congestion": 1.88, "right_turn_lane": 1.0, "in_cordon": true}}, {"type": "Feature", "geometry": {"type": "MultiLineString", "coordinates": [[[141.35683, 43.06274], [141.3568, 43.06286]], [[141.35657, 43.0627], [141.35654, 43.06283]], [[141.35842, 43.05645], [141.35816, 43.05757], [141.35793, 43.05843], [141.35741, 43.06047], [141.35721, 43.06122], [141.35709, 43.0617], [141.35686, 43.06263], [141.35683, 43.06274]], [[141.35816, 43.05641], [141.35808, 43.05671], [141.35773, 43.05803], [141.35717, 43.06045], [141.35684, 43.06167], [141.3566, 43.06258], [141.35657, 43.0627]], [[141.35846, 43.05629], [141.35842, 43.05645]], [[141.3582, 43.05625], [141.35816, 43.05641]], [[141.35883, 43.05512], [141.35872, 43.05521], [141.35849, 43.05614], [141.35846, 43.05629]], [[141.35843, 43.05507], [141.35846, 43.05518], [141.35823, 43.0561], [141.3582, 43.05625]]]}, "properties": {"section_id": "01509000090", "route": "真駒内篠路線", "n_lanes": 4.0, "w_carriageway": 20.0, "speed_limit": 50, "heavy_pct": 2.8, "v_peak_up": 28.8, "v_off_up": 36.1, "v12h": 23090.0, "congestion": 1.27, "right_turn_lane": 1.0, "in_cordon": true}}, {"type": "Feature", "geometry": {"type": "MultiLineString", "coordinates": [[[141.35858, 43.04897], [141.35849, 43.04879], [141.35826, 43.04841], [141.35816, 43.04811]], [[141.35683, 43.03981], [141.35712, 43.04035], [141.35729, 43.04068], [141.35753, 43.0411], [141.35768, 43.04144], [141.35773, 43.0416], [141.35788, 43.04269], [141.35817, 43.04475], [141.35822, 43.0452], [141.35822, 43.04567], [141.3582, 43.04612], [141.35816, 43.04649], [141.35807, 43.0471], [141.35803, 43.04746], [141.35805, 43.04766], [141.3581, 43.04788], [141.35816, 43.04811]], [[141.35683, 43.03981], [141.3566, 43.03933], [141.35642, 43.03898], [141.35616, 43.0386], [141.35585, 43.03817], [141.35507, 43.03725], [141.3548, 43.03689], [141.35462, 43.03665], [141.35442, 43.03634], [141.35424, 43.03594], [141.35408, 43.03554], [141.35391, 43.03486]]]}, "properties": {"section_id": "01509000140", "route": "真駒内篠路線", "n_lanes": 2.0, "w_carriageway": 7.5, "speed_limit": 50, "heavy_pct": 6.5, "v12h": 10562.0, "congestion": 0.57, "right_turn_lane": 2.0, "in_cordon": false}}, {"type": "Feature", "geometry": {"type": "MultiLineString", "coordinates": [[[141.35858, 43.04897], [141.35865, 43.04906], [141.35904, 43.04985], [141.35909, 43.05], [141.35964, 43.05151], [141.36017, 43.05294]]]}, "properties": {"section_id": "01509000150", "route": "真駒内篠路線", "n_lanes": 2.0, "w_carriageway": 7.5, "speed_limit": 50, "heavy_pct": 8.0, "v12h": 17470.0, "congestion": 0.96, "right_turn_lane": 2.0, "in_cordon": true}}, {"type": "Feature", "geometry": {"type": "MultiLineString", "coordinates": [[[141.32812, 43.04746], [141.3287, 43.04751], [141.33041, 43.04764], [141.33209, 43.04774], [141.3338, 43.04787], [141.33469, 43.04793], [141.3355, 43.04798], [141.33722, 43.04809], [141.33921, 43.04824], [141.34119, 43.04837], [141.34265, 43.04847]]]}, "properties": {"section_id": "01509010020", "route": "旭山公園米里線", "n_lanes": 4.0, "w_carriageway": 16.0, "speed_limit": 40, "heavy_pct": 4.0, "v_peak_up": 19.1, "v_off_up": 19.1, "v12h": 14238.0, "congestion": 0.92, "right_turn_lane": 2.0, "in_cordon": false}}, {"type": "Feature", "geometry": {"type": "MultiLineString", "coordinates": [[[141.34407, 43.04857], [141.34604, 43.04871], [141.34806, 43.0487], [141.34976, 43.04867], [141.35053, 43.04868], [141.35176, 43.04867], [141.35274, 43.04865], [141.35337, 43.04865], [141.35407, 43.04873], [141.35504, 43.04887], [141.3566, 43.04907], [141.35709, 43.04912], [141.35726, 43.04911]], [[141.35858, 43.04897], [141.35726, 43.04911]], [[141.34407, 43.04857], [141.34334, 43.04852], [141.34265, 43.04847]]]}, "properties": {"section_id": "01509010030", "route": "旭山公園米里線", "n_lanes": 4.0, "w_carriageway": 16.0, "speed_limit": 40, "heavy_pct": 4.0, "v_peak_up": 17.4, "v_off_up": 18.1, "v12h": 14238.0, "congestion": 0.92, "right_turn_lane": 2.0, "in_cordon": false}}, {"type": "Feature", "geometry": {"type": "MultiLineString", "coordinates": [[[141.35858, 43.04897], [141.35872, 43.04896], [141.36113, 43.04869]], [[141.36219, 43.04857], [141.36206, 43.04858], [141.36113, 43.04869]]]}, "properties": {"section_id": "01509010040", "route": "旭山公園米里線", "n_lanes": 4.0, "w_carriageway": 13.0, "speed_limit": 40, "heavy_pct": 4.0, "v_peak_up": 31.3, "v_off_up": 33.7, "v12h": 14238.0, "congestion": 0.87, "right_turn_lane": 2.0, "in_cordon": false}}, {"type": "Feature", "geometry": {"type": "MultiLineString", "coordinates": [[[141.36632, 43.05154], [141.36667, 43.05187], [141.36681, 43.052], [141.36746, 43.05257], [141.36829, 43.05333]], [[141.36632, 43.05154], [141.36609, 43.05136], [141.36531, 43.05068], [141.36505, 43.05045]], [[141.36498, 43.05034], [141.36505, 43.05045]], [[141.36498, 43.05034], [141.3649, 43.05021]], [[141.36219, 43.04857], [141.36235, 43.04857], [141.36269, 43.04854], [141.36295, 43.04853], [141.36319, 43.04853], [141.36344, 43.04855], [141.36365, 43.04857], [141.36386, 43.0486], [141.36463, 43.04873], [141.36472, 43.04909], [141.36484, 43.04994], [141.36486, 43.05004], [141.3649, 43.05021]]]}, "properties": {"section_id": "01509010050", "route": "旭山公園米里線", "n_lanes": 4.0, "w_carriageway": 13.0, "speed_limit": 40, "heavy_pct": 8.0, "v_peak_up": 11.9, "v_off_up": 15.0, "v12h": 8266.0, "congestion": 0.65, "right_turn_lane": 2.0, "in_cordon": false}}, {"type": "Feature", "geometry": {"type": "MultiLineString", "coordinates": [[[141.35485, 43.07089], [141.35642, 43.07111], [141.35796, 43.07132], [141.35953, 43.07154], [141.3611, 43.07174], [141.36141, 43.07178], [141.36162, 43.07181], [141.36167, 43.07191], [141.36182, 43.07204], [141.36194, 43.07215], [141.3628, 43.07302], [141.36287, 43.07311], [141.36293, 43.07316], [141.36301, 43.07323], [141.3635, 43.0737], [141.36359, 43.07387], [141.36371, 43.07399], [141.36391, 43.07421], [141.36402, 43.07429], [141.36428, 43.07444], [141.36444, 43.07455], [141.36463, 43.07465]]]}, "properties": {"section_id": "01602730150", "route": "花畔札幌線", "n_lanes": 4.0, "w_carriageway": 13.0, "speed_limit": 40, "heavy_pct": 12.9, "v_peak_up": 9.7, "v_off_up": 9.7, "v12h": 12720.0, "congestion": 0.97, "right_turn_lane": 2.0, "in_cordon": false}}, {"type": "Feature", "geometry": {"type": "MultiLineString", "coordinates": [[[141.33107, 43.07022], [141.33118, 43.07017], [141.33199, 43.06983], [141.33203, 43.06968], [141.33222, 43.06898]], [[141.33225, 43.06889], [141.33222, 43.06898]]]}, "properties": {"section_id": "01603260010", "route": "桑園停車場線", "n_lanes": 4.0, "w_carriageway": 13.0, "speed_limit": 40, "heavy_pct": 7.3, "v_peak_up": 14.5, "v_off_up": 15.0, "v12h": 7752.0, "congestion": 0.47, "right_turn_lane": 2.0, "in_cordon": false}}, {"type": "Feature", "geometry": {"type": "MultiLineString", "coordinates": [[[141.33866, 43.06936], [141.33631, 43.07171]], [[141.33888, 43.06889], [141.33876, 43.06908], [141.33856, 43.0693], [141.33632, 43.07156]], [[141.33866, 43.06936], [141.33884, 43.06914]], [[141.339, 43.06889], [141.33884, 43.06914]]]}, "properties": {"section_id": "01604520080", "route": "下手稲札幌線", "n_lanes": 5.0, "w_carriageway": 20.0, "speed_limit": 50, "heavy_pct": 5.4, "v_peak_up": 24.1, "v_off_up": 26.3, "v12h": 22211.0, "congestion": 0.92, "right_turn_lane": 2.0, "in_cordon": false}}, {"type": "Feature", "geometry": {"type": "MultiLineString", "coordinates": [[[141.33249, 43.06784], [141.33225, 43.06889]], [[141.33249, 43.06784], [141.3328, 43.06671], [141.33295, 43.06613], [141.33309, 43.06557], [141.33322, 43.065], [141.33338, 43.06443], [141.33351, 43.06385], [141.33365, 43.06333]], [[141.33368, 43.06316], [141.33365, 43.06333]], [[141.33368, 43.06316], [141.3338, 43.06264]], [[141.33396, 43.06203], [141.3338, 43.06264]], [[141.33396, 43.06203], [141.33412, 43.0614]], [[141.33428, 43.06086], [141.33412, 43.0614]], [[141.33428, 43.06086], [141.33457, 43.0597]]]}, "properties": {"section_id": "01603260010", "route": "桑園停車場線", "n_lanes": 4.0, "w_carriageway": 13.0, "speed_limit": 40, "heavy_pct": 7.3, "v_peak_up": 14.5, "v_off_up": 15.0, "v12h": 7752.0, "congestion": 0.47, "right_turn_lane": 2.0, "in_cordon": false}}, {"type": "Feature", "geometry": {"type": "MultiLineString", "coordinates": [[[141.33919, 43.06841], [141.33917, 43.0685], [141.3391, 43.06871], [141.33907, 43.06875], [141.33905, 43.0688], [141.339, 43.06889]], [[141.33905, 43.06844], [141.33899, 43.06868], [141.33898, 43.06872], [141.33895, 43.06877], [141.33888, 43.06889]], [[141.33905, 43.06844], [141.33905, 43.06818], [141.33905, 43.06792]], [[141.33919, 43.06841], [141.33921, 43.06816], [141.33921, 43.06788]], [[141.33907, 43.0675], [141.33905, 43.06768], [141.33905, 43.06787], [141.33905, 43.06792]], [[141.33921, 43.06747], [141.33921, 43.06763], [141.33921, 43.0678], [141.33921, 43.06788]]]}, "properties": {"section_id": "01604520080", "route": "下手稲札幌線", "n_lanes": 5.0, "w_carriageway": 20.0, "speed_limit": 50, "heavy_pct": 5.4, "v_peak_up": 24.1, "v_off_up": 26.3, "v12h": 22211.0, "congestion": 0.92, "right_turn_lane": 2.0, "in_cordon": false}}, {"type": "Feature", "geometry": {"type": "MultiLineString", "coordinates": [[[141.33922, 43.0664], [141.3391, 43.06699], [141.33908, 43.06713], [141.33907, 43.06732], [141.33907, 43.0675]], [[141.33936, 43.06642], [141.33925, 43.06701], [141.33922, 43.06715], [141.33921, 43.06728], [141.33921, 43.06747]], [[141.33936, 43.06642], [141.3395, 43.06584]], [[141.33922, 43.0664], [141.33939, 43.06583]], [[141.3396, 43.06528], [141.3396, 43.06541], [141.3395, 43.06584]], [[141.3396, 43.06528], [141.3395, 43.06538], [141.33939, 43.06583]], [[141.34078, 43.06056], [141.34064, 43.06114], [141.3405, 43.0617], [141.34018, 43.06287], [141.33988, 43.06409], [141.33975, 43.06469], [141.3396, 43.06528]]]}, "properties": {"section_id": "01604520090", "route": "下手稲札幌線", "n_lanes": 4.0, "w_carriageway": 16.0, "speed_limit": 50, "heavy_pct": 5.4, "v_peak_up": 14.1, "v_off_up": 17.2, "v12h": 22211.0, "congestion": 0.99, "right_turn_lane": 1.0, "in_cordon": true}}, {"type": "Feature", "geometry": {"type": "MultiLineString", "coordinates": [[[141.34864, 43.05505], [141.35019, 43.05526], [141.35176, 43.05547], [141.35324, 43.05567]], [[141.34548, 43.05473], [141.34705, 43.05492], [141.34839, 43.0551], [141.34864, 43.05505]], [[141.34552, 43.05452], [141.34708, 43.05473], [141.34844, 43.05492], [141.34864, 43.05505]], [[141.34548, 43.05473], [141.34375, 43.0546]], [[141.34217, 43.05451], [141.34249, 43.05451], [141.34375, 43.0546]], [[141.34552, 43.05452], [141.34506, 43.05448], [141.34378, 43.05439]], [[141.3422, 43.05434], [141.34265, 43.05432], [141.34378, 43.05439]]]}, "properties": {"section_id": "01700090010", "route": "南４条線", "n_lanes": 4.0, "w_carriageway": 29.5, "speed_limit": 40, "heavy_pct": 7.1, "v_peak_up": 13.0, "v_off_up": 12.1, "v12h": 18224.0, "congestion": 0.71, "right_turn_lane": 2.0, "in_cordon": true}}]}