{"type": "FeatureCollection", "features": [{"type": "Feature", "geometry": {"type": "Polygon", "coordinates": [[[141.361136, 43.052554], [141.357372, 43.067971], [141.339003, 43.065559], [141.342772, 43.050142], [141.361136, 43.052554]]]}, "properties": {"kind": "cordon"}}, {"type": "Feature", "geometry": {"type": "Polygon", "coordinates": [[[141.368258, 43.048916], [141.337814, 43.044918], [141.331878, 43.069194], [141.362333, 43.073194], [141.368258, 43.048916]]]}, "properties": {"kind": "clip"}}]}