{"type": "FeatureCollection", "features": [{"type": "Feature", "geometry": {"type": "LineString", "coordinates": [[141.340985, 43.057451], [141.359352, 43.059864]]}, "properties": {"name": "南1条通"}}, {"type": "Feature", "geometry": {"type": "LineString", "coordinates": [[141.341267, 43.0563], [141.359633, 43.058712]]}, "properties": {"name": "南2条通"}}, {"type": "Feature", "geometry": {"type": "LineString", "coordinates": [[141.341548, 43.055148], [141.359914, 43.05756]]}, "properties": {"name": "南3条通"}}, {"type": "Feature", "geometry": {"type": "LineString", "coordinates": [[141.34183, 43.053996], [141.360195, 43.056408]]}, "properties": {"name": "南4条通"}}, {"type": "Feature", "geometry": {"type": "LineString", "coordinates": [[141.342111, 43.052844], [141.360476, 43.055256]]}, "properties": {"name": "南5条通"}}, {"type": "Feature", "geometry": {"type": "LineString", "coordinates": [[141.342393, 43.051692], [141.360757, 43.054104]]}, "properties": {"name": "南6条通"}}, {"type": "Feature", "geometry": {"type": "LineString", "coordinates": [[141.342674, 43.05054], [141.361039, 43.052953]]}, "properties": {"name": "南7条通"}}, {"type": "Feature", "geometry": {"type": "LineString", "coordinates": [[141.340606, 43.059002], [141.358973, 43.061414]]}, "properties": {"name": "大通"}}, {"type": "Feature", "geometry": {"type": "LineString", "coordinates": [[141.340227, 43.060553], [141.358594, 43.062965]]}, "properties": {"name": "北1条通"}}, {"type": "Feature", "geometry": {"type": "LineString", "coordinates": [[141.339946, 43.061704], [141.358313, 43.064117]]}, "properties": {"name": "北2条通"}}, {"type": "Feature", "geometry": {"type": "LineString", "coordinates": [[141.339664, 43.062856], [141.358032, 43.065269]]}, "properties": {"name": "北3条通"}}, {"type": "Feature", "geometry": {"type": "LineString", "coordinates": [[141.339382, 43.064008], [141.357751, 43.066421]]}, "properties": {"name": "北4条通"}}, {"type": "Feature", "geometry": {"type": "LineString", "coordinates": [[141.339101, 43.06516], [141.35747, 43.067572]]}, "properties": {"name": "北5条通"}}, {"type": "Feature", "geometry": {"type": "LineString", "coordinates": [[141.359021, 43.052276], [141.355257, 43.067694]]}, "properties": {"name": "西1丁目通"}}, {"type": "Feature", "geometry": {"type": "LineString", "coordinates": [[141.357451, 43.05207], [141.353686, 43.067487]]}, "properties": {"name": "西2丁目通"}}, {"type": "Feature", "geometry": {"type": "LineString", "coordinates": [[141.35588, 43.051864], [141.352115, 43.067281]]}, "properties": {"name": "西3丁目通"}}, {"type": "Feature", "geometry": {"type": "LineString", "coordinates": [[141.354309, 43.051658], [141.350544, 43.067075]]}, "properties": {"name": "西4丁目通"}}, {"type": "Feature", "geometry": {"type": "LineString", "coordinates": [[141.352739, 43.051451], [141.348973, 43.066868]]}, "properties": {"name": "西5丁目通"}}, {"type": "Feature", "geometry": {"type": "LineString", "coordinates": [[141.351168, 43.051245], [141.347402, 43.066662]]}, "properties": {"name": "西6丁目通"}}, {"type": "Feature", "geometry": {"type": "LineString", "coordinates": [[141.349598, 43.051039], [141.345831, 43.066456]]}, "properties": {"name": "西7丁目通"}}, {"type": "Feature", "geometry": {"type": "LineString", "coordinates": [[141.348027, 43.050832], [141.34426, 43.066249]]}, "properties": {"name": "西8丁目通"}}, {"type": "Feature", "geometry": {"type": "LineString", "coordinates": [[141.346456, 43.050626], [141.342689, 43.066043]]}, "properties": {"name": "西9丁目通"}}, {"type": "Feature", "geometry": {"type": "LineString", "coordinates": [[141.344886, 43.05042], [141.341118, 43.065837]]}, "properties": {"name": "西10丁目通"}}, {"type": "Feature", "geometry": {"type": "LineString", "coordinates": [[141.343315, 43.050213], [141.339547, 43.06563]]}, "properties": {"name": "西11丁目通"}}, {"type": "Feature", "geometry": {"type": "LineString", "coordinates": [[141.360592, 43.052482], [141.356828, 43.0679]]}, "properties": {"name": "東1丁目通"}}]}