{"type": "FeatureCollection", "features": [{"type": "Feature", "geometry": {"type": "Point", "coordinates": [141.352485, 43.059]}, "properties": {"jartic_id": "3001-1", "intersection": 1, "in_cordon": true, "n_phases": 4, "n_in_links": 4, "n_out_links": 4, "cycle_min_s": 145.0, "cycle_max_s": 145.0, "n_hours": 24}}, {"type": "Feature", "geometry": {"type": "Point", "coordinates": [141.351708, 43.062045]}, "properties": {"jartic_id": "3001-2", "intersection": 2, "in_cordon": true, "n_phases": 4, "n_in_links": 4, "n_out_links": 4, "cycle_min_s": 100.0, "cycle_max_s": 125.5, "n_hours": 24}}, {"type": "Feature", "geometry": {"type": "Point", "coordinates": [141.350509, 43.06677]}, "properties": {"jartic_id": "3001-3", "intersection": 3, "in_cordon": true, "n_phases": 5, "n_in_links": 3, "n_out_links": 3, "cycle_min_s": 110.0, "cycle_max_s": 125.0, "n_hours": 24}}, {"type": "Feature", "geometry": {"type": "Point", "coordinates": [141.340781, 43.060562]}, "properties": {"jartic_id": "3001-4", "intersection": 4, "in_cordon": true, "n_phases": 5, "n_in_links": 4, "n_out_links": 4, "cycle_min_s": 120.0, "cycle_max_s": 125.0, "n_hours": 24}}, {"type": "Feature", "geometry": {"type": "Point", "coordinates": [141.353318, 43.055675]}, "properties": {"jartic_id": "3001-5", "intersection": 5, "in_cordon": true, "n_phases": 4, "n_in_links": 4, "n_out_links": 4, "cycle_min_s": 145.0, "cycle_max_s": 145.0, "n_hours": 24}}, {"type": "Feature", "geometry": {"type": "Point", "coordinates": [141.366326, 43.064029]}, "properties": {"jartic_id": "3001-6", "intersection": 6, "in_cordon": false, "n_phases": 5, "n_in_links": 4, "n_out_links": 4, "cycle_min_s": 90.0, "cycle_max_s": 125.0, "n_hours": 24}}, {"type": "Feature", "geometry": {"type": "Point", "coordinates": [141.348955, 43.066562]}, "properties": {"jartic_id": "3001-7", "intersection": 7, "in_cordon": true, "n_phases": 5, "n_in_links": 3, "n_out_links": 4, "cycle_min_s": 95.0, "cycle_max_s": 125.0, "n_hours": 24}}, {"type": "Feature", "geometry": {"type": "Point", "coordinates": [141.351144, 43.06439]}, "properties": {"jartic_id": "3001-8", "intersection": 8, "in_cordon": true, "n_phases": 3, "n_in_links": 3, "n_out_links": 3, "cycle_min_s": 100.0, "cycle_max_s": 124.03, "n_hours": 24}}, {"type": "Feature", "geometry": {"type": "Point", "coordinates": [141.366657, 43.066479]}, "properties": {"jartic_id": "3001-9", "intersection": 9, "in_cordon": false, "n_phases": 6, "n_in_links": 4, "n_out_links": 4, "cycle_min_s": 95.0, "cycle_max_s": 125.0, "n_hours": 24}}, {"type": "Feature", "geometry": {"type": "Point", "coordinates": [141.339597, 43.065286]}, "properties": {"jartic_id": "3001-10", "intersection": 10, "in_cordon": true, "n_phases": 6, "n_in_links": 4, "n_out_links": 4, "cycle_min_s": 120.0, "cycle_max_s": 125.0, "n_hours": 24}}, {"type": "Feature", "geometry": {"type": "Point", "coordinates": [141.342115, 43.054385]}, "properties": {"jartic_id": "3001-11", "intersection": 11, "in_cordon": true, "n_phases": 5, "n_in_links": 3, "n_out_links": 3, "cycle_min_s": 120.0, "cycle_max_s": 125.0, "n_hours": 24}}, {"type": "Feature", "geometry": {"type": "Point", "coordinates": [141.333378, 43.064436]}, "properties": {"jartic_id": "3001-12", "intersection": 12, "in_cordon": false, "n_phases": 5, "n_in_links": 4, "n_out_links": 4, "cycle_min_s": 85.0, "cycle_max_s": 124.21, "n_hours": 24}}, {"type": "Feature", "geometry": {"type": "Point", "coordinates": [141.379575, 43.065908]}, "properties": {"jartic_id": "3001-13", "intersection": 13, "in_cordon": false, "n_phases": 6, "n_in_links": 4, "n_out_links": 4, "cycle_min_s": 115.0, "cycle_max_s": 140.0, "n_hours": 24}}, {"type": "Feature", "geometry": {"type": "Point", "coordinates": [141.356693, 43.06272]}, "properties": {"jartic_id": "3001-14", "intersection": 14, "in_cordon": true, "n_phases": 5, "n_in_links": 4, "n_out_links": 4, "cycle_min_s": 100.0, "cycle_max_s": 125.5, "n_hours": 24}}, {"type": "Feature", "geometry": {"type": "Point", "coordinates": [141.355334, 43.060596]}, "properties": {"jartic_id": "3001-15", "intersection": 15, "in_cordon": true, "n_phases": 3, "n_in_links": 2, "n_out_links": 2, "cycle_min_s": 103.31, "cycle_max_s": 125.0, "n_hours": 24}}, {"type": "Feature", "geometry": {"type": "Point", "coordinates": [141.335325, 43.056646]}, "properties": {"jartic_id": "3001-16", "intersection": 16, "in_cordon": false, "n_phases": 4, "n_in_links": 4, "n_out_links": 4, "cycle_min_s": 125.0, "cycle_max_s": 135.0, "n_hours": 24}}, {"type": "Feature", "geometry": {"type": "Point", "coordinates": [141.353945, 43.053275]}, "properties": {"jartic_id": "3001-17", "intersection": 17, "in_cordon": true, "n_phases": 4, "n_in_links": 3, "n_out_links": 3, "cycle_min_s": 80.0, "cycle_max_s": 111.18, "n_hours": 24}}, {"type": "Feature", "geometry": {"type": "Point", "coordinates": [141.358303, 43.056346]}, "properties": {"jartic_id": "3001-18", "intersection": 18, "in_cordon": true, "n_phases": 5, "n_in_links": 4, "n_out_links": 4, "cycle_min_s": 119.12, "cycle_max_s": 130.0, "n_hours": 24}}, {"type": "Feature", "geometry": {"type": "Point", "coordinates": [141.346126, 43.064953]}, "properties": {"jartic_id": "3001-19", "intersection": 19, "in_cordon": true, "n_phases": 3, "n_in_links": 3, "n_out_links": 3, "cycle_min_s": 90.0, "cycle_max_s": 120.39, "n_hours": 24}}, {"type": "Feature", "geometry": {"type": "Point", "coordinates": [141.347802, 43.058354]}, "properties": {"jartic_id": "3001-20", "intersection": 20, "in_cordon": true, "n_phases": 3, "n_in_links": 3, "n_out_links": 3, "cycle_min_s": 81.54, "cycle_max_s": 125.0, "n_hours": 24}}, {"type": "Feature", "geometry": {"type": "Point", "coordinates": [141.359446, 43.065512]}, "properties": {"jartic_id": "3001-21", "intersection": 21, "in_cordon": false, "n_phases": 4, "n_in_links": 3, "n_out_links": 3, "cycle_min_s": 80.0, "cycle_max_s": 123.97, "n_hours": 24}}, {"type": "Feature", "geometry": {"type": "Point", "coordinates": [141.357158, 43.060906]}, "properties": {"jartic_id": "3001-22", "intersection": 22, "in_cordon": true, "n_phases": 3, "n_in_links": 3, "n_out_links": 4, "cycle_min_s": 110.0, "cycle_max_s": 130.0, "n_hours": 24}}, {"type": "Feature", "geometry": {"type": "Point", "coordinates": [141.349847, 43.062987]}, "properties": {"jartic_id": "3001-23", "intersection": 23, "in_cordon": true, "n_phases": 4, "n_in_links": 3, "n_out_links": 3, "cycle_min_s": 100.0, "cycle_max_s": 125.0, "n_hours": 24}}, {"type": "Feature", "geometry": {"type": "Point", "coordinates": [141.335906, 43.067128]}, "properties": {"jartic_id": "3001-24", "intersection": 24, "in_cordon": false, "n_phases": 4, "n_in_links": 4, "n_out_links": 3, "cycle_min_s": 80.0, "cycle_max_s": 97.96, "n_hours": 24}}, {"type": "Feature", "geometry": {"type": "Point", "coordinates": [141.367204, 43.061002]}, "properties": {"jartic_id": "3001-25", "intersection": 25, "in_cordon": false, "n_phases": 4, "n_in_links": 5, "n_out_links": 5, "cycle_min_s": 110.0, "cycle_max_s": 123.96, "n_hours": 24}}, {"type": "Feature", "geometry": {"type": "Point", "coordinates": [141.334281, 43.060861]}, "properties": {"jartic_id": "3001-26", "intersection": 26, "in_cordon": false, "n_phases": 4, "n_in_links": 3, "n_out_links": 3, "cycle_min_s": 80.0, "cycle_max_s": 113.89, "n_hours": 24}}, {"type": "Feature", "geometry": {"type": "Point", "coordinates": [141.336589, 43.058046]}, "properties": {"jartic_id": "3001-27", "intersection": 27, "in_cordon": false, "n_phases": 5, "n_in_links": 2, "n_out_links": 1, "cycle_min_s": 85.0, "cycle_max_s": 97.24, "n_hours": 24}}, {"type": "Feature", "geometry": {"type": "Point", "coordinates": [141.360198, 43.052913]}, "properties": {"jartic_id": "3001-28", "intersection": 28, "in_cordon": true, "n_phases": 5, "n_in_links": 3, "n_out_links": 3, "cycle_min_s": 119.47, "cycle_max_s": 130.0, "n_hours": 24}}, {"type": "Feature", "geometry": {"type": "Point", "coordinates": [141.329862, 43.081294]}, "properties": {"jartic_id": "3001-29", "intersection": 29, "in_cordon": false, "n_phases": 4, "n_in_links": 4, "n_out_links": 4, "cycle_min_s": 125.0, "cycle_max_s": 151.43, "n_hours": 24}}, {"type": "Feature", "geometry": {"type": "Point", "coordinates": [141.358939, 43.061141]}, "properties": {"jartic_id": "3001-30", "intersection": 30, "in_cordon": true, "n_phases": 4, "n_in_links": 3, "n_out_links": 3, "cycle_min_s": 95.0, "cycle_max_s": 123.96, "n_hours": 24}}, {"type": "Feature", "geometry": {"type": "Point", "coordinates": [141.355499, 43.067432]}, "properties": {"jartic_id": "3001-31", "intersection": 31, "in_cordon": true, "n_phases": 5, "n_in_links": 4, "n_out_links": 4, "cycle_min_s": 100.0, "cycle_max_s": 125.0, "n_hours": 24}}, {"type": "Feature", "geometry": {"type": "Point", "coordinates": [141.378748, 43.066925]}, "properties": {"jartic_id": "3001-32", "intersection": 32, "in_cordon": false, "n_phases": 6, "n_in_links": 4, "n_out_links": 4, "cycle_min_s": 115.0, "cycle_max_s": 140.0, "n_hours": 24}}, {"type": "Feature", "geometry": {"type": "Point", "coordinates": [141.333067, 43.071035]}, "properties": {"jartic_id": "3001-33", "intersection": 33, "in_cordon": false, "n_phases": 3, "n_in_links": 4, "n_out_links": 4, "cycle_min_s": 110.0, "cycle_max_s": 130.0, "n_hours": 24}}, {"type": "Feature", "geometry": {"type": "Point", "coordinates": [141.354631, 43.070865]}, "properties": {"jartic_id": "3001-34", "intersection": 34, "in_cordon": false, "n_phases": 5, "n_in_links": 4, "n_out_links": 4, "cycle_min_s": 105.0, "cycle_max_s": 125.0, "n_hours": 24}}, {"type": "Feature", "geometry": {"type": "Point", "coordinates": [141.365232, 43.072311]}, "properties": {"jartic_id": "3001-35", "intersection": 35, "in_cordon": false, "n_phases": 5, "n_in_links": 4, "n_out_links": 4, "cycle_min_s": 85.0, "cycle_max_s": 110.43, "n_hours": 24}}, {"type": "Feature", "geometry": {"type": "Point", "coordinates": [141.356092, 43.111406]}, "properties": {"jartic_id": "3001-36", "intersection": 36, "in_cordon": false, "n_phases": 5, "n_in_links": 4, "n_out_links": 4, "cycle_min_s": 115.29, "cycle_max_s": 128.83, "n_hours": 24}}, {"type": "Feature", "geometry": {"type": "Point", "coordinates": [141.357961, 43.071328]}, "properties": {"jartic_id": "3001-37", "intersection": 37, "in_cordon": false, "n_phases": 4, "n_in_links": 3, "n_out_links": 3, "cycle_min_s": 95.0, "cycle_max_s": 122.57, "n_hours": 24}}, {"type": "Feature", "geometry": {"type": "Point", "coordinates": [141.349214, 43.093467]}, "properties": {"jartic_id": "3001-38", "intersection": 38, "in_cordon": false, "n_phases": 4, "n_in_links": 4, "n_out_links": 4, "cycle_min_s": 75.0, "cycle_max_s": 124.88, "n_hours": 24}}, {"type": "Feature", "geometry": {"type": "Point", "coordinates": [141.360788, 43.092584]}, "properties": {"jartic_id": "3001-39", "intersection": 39, "in_cordon": false, "n_phases": 6, "n_in_links": 4, "n_out_links": 4, "cycle_min_s": 90.0, "cycle_max_s": 130.0, "n_hours": 24}}, {"type": "Feature", "geometry": {"type": "Point", "coordinates": [141.346415, 43.104923]}, "properties": {"jartic_id": "3001-40", "intersection": 40, "in_cordon": false, "n_phases": 6, "n_in_links": 3, "n_out_links": 3, "cycle_min_s": 120.0, "cycle_max_s": 126.89, "n_hours": 24}}, {"type": "Feature", "geometry": {"type": "Point", "coordinates": [141.360206, 43.094908]}, "properties": {"jartic_id": "3001-41", "intersection": 41, "in_cordon": false, "n_phases": 4, "n_in_links": 4, "n_out_links": 4, "cycle_min_s": 90.0, "cycle_max_s": 130.0, "n_hours": 24}}, {"type": "Feature", "geometry": {"type": "Point", "coordinates": [141.363888, 43.080398]}, "properties": {"jartic_id": "3001-42", "intersection": 42, "in_cordon": false, "n_phases": 6, "n_in_links": 4, "n_out_links": 4, "cycle_min_s": 110.0, "cycle_max_s": 130.0, "n_hours": 24}}, {"type": "Feature", "geometry": {"type": "Point", "coordinates": [141.397648, 43.071971]}, "properties": {"jartic_id": "3001-43", "intersection": 43, "in_cordon": false, "n_phases": 6, "n_in_links": 4, "n_out_links": 4, "cycle_min_s": 105.0, "cycle_max_s": 129.42, "n_hours": 24}}, {"type": "Feature", "geometry": {"type": "Point", "coordinates": [141.35439, 43.079106]}, "properties": {"jartic_id": "3001-44", "intersection": 44, "in_cordon": false, "n_phases": 4, "n_in_links": 3, "n_out_links": 3, "cycle_min_s": 90.0, "cycle_max_s": 130.0, "n_hours": 24}}, {"type": "Feature", "geometry": {"type": "Point", "coordinates": [141.34361, 43.118492]}, "properties": {"jartic_id": "3001-45", "intersection": 45, "in_cordon": false, "n_phases": 6, "n_in_links": 4, "n_out_links": 4, "cycle_min_s": 125.0, "cycle_max_s": 130.0, "n_hours": 24}}, {"type": "Feature", "geometry": {"type": "Point", "coordinates": [141.358179, 43.103074]}, "properties": {"jartic_id": "3001-46", "intersection": 46, "in_cordon": false, "n_phases": 6, "n_in_links": 4, "n_out_links": 4, "cycle_min_s": 122.39, "cycle_max_s": 165.0, "n_hours": 24}}, {"type": "Feature", "geometry": {"type": "Point", "coordinates": [141.352392, 43.078839]}, "properties": {"jartic_id": "3001-47", "intersection": 47, "in_cordon": false, "n_phases": 5, "n_in_links": 6, "n_out_links": 6, "cycle_min_s": 100.0, "cycle_max_s": 125.0, "n_hours": 24}}, {"type": "Feature", "geometry": {"type": "Point", "coordinates": [141.369129, 43.10458]}, "properties": {"jartic_id": "3001-48", "intersection": 48, "in_cordon": false, "n_phases": 5, "n_in_links": 4, "n_out_links": 4, "cycle_min_s": 122.39, "cycle_max_s": 165.0, "n_hours": 24}}, {"type": "Feature", "geometry": {"type": "Point", "coordinates": [141.371715, 43.094068]}, "properties": {"jartic_id": "3001-49", "intersection": 49, "in_cordon": false, "n_phases": 6, "n_in_links": 4, "n_out_links": 4, "cycle_min_s": 105.0, "cycle_max_s": 129.69, "n_hours": 24}}, {"type": "Feature", "geometry": {"type": "Point", "coordinates": [141.367145, 43.112993]}, "properties": {"jartic_id": "3001-50", "intersection": 50, "in_cordon": false, "n_phases": 6, "n_in_links": 4, "n_out_links": 4, "cycle_min_s": 115.29, "cycle_max_s": 128.83, "n_hours": 24}}, {"type": "Feature", "geometry": {"type": "Point", "coordinates": [141.343866, 43.114897]}, "properties": {"jartic_id": "3001-51", "intersection": 51, "in_cordon": false, "n_phases": 5, "n_in_links": 3, "n_out_links": 3, "cycle_min_s": 125.0, "cycle_max_s": 130.0, "n_hours": 24}}, {"type": "Feature", "geometry": {"type": "Point", "coordinates": [141.402292, 43.075529]}, "properties": {"jartic_id": "3001-52", "intersection": 52, "in_cordon": false, "n_phases": 6, "n_in_links": 4, "n_out_links": 4, "cycle_min_s": 115.0, "cycle_max_s": 149.96, "n_hours": 24}}, {"type": "Feature", "geometry": {"type": "Point", "coordinates": [141.383294, 43.094342]}, "properties": {"jartic_id": "3001-53", "intersection": 53, "in_cordon": false, "n_phases": 5, "n_in_links": 4, "n_out_links": 4, "cycle_min_s": 85.0, "cycle_max_s": 119.79, "n_hours": 24}}, {"type": "Feature", "geometry": {"type": "Point", "coordinates": [141.383455, 43.082835]}, "properties": {"jartic_id": "3001-54", "intersection": 54, "in_cordon": false, "n_phases": 4, "n_in_links": 3, "n_out_links": 3, "cycle_min_s": 110.0, "cycle_max_s": 135.0, "n_hours": 24}}, {"type": "Feature", "geometry": {"type": "Point", "coordinates": [141.41382, 43.08869]}, "properties": {"jartic_id": "3001-55", "intersection": 55, "in_cordon": false, "n_phases": 4, "n_in_links": 4, "n_out_links": 4, "cycle_min_s": 115.0, "cycle_max_s": 172.79, "n_hours": 24}}, {"type": "Feature", "geometry": {"type": "Point", "coordinates": [141.425386, 43.093764]}, "properties": {"jartic_id": "3001-56", "intersection": 56, "in_cordon": false, "n_phases": 5, "n_in_links": 3, "n_out_links": 3, "cycle_min_s": 105.0, "cycle_max_s": 127.38, "n_hours": 24}}, {"type": "Feature", "geometry": {"type": "Point", "coordinates": [141.406152, 43.085886]}, "properties": {"jartic_id": "3001-57", "intersection": 57, "in_cordon": false, "n_phases": 6, "n_in_links": 4, "n_out_links": 4, "cycle_min_s": 95.0, "cycle_max_s": 119.79, "n_hours": 24}}, {"type": "Feature", "geometry": {"type": "Point", "coordinates": [141.365158, 43.121073]}, "properties": {"jartic_id": "3001-58", "intersection": 58, "in_cordon": false, "n_phases": 6, "n_in_links": 4, "n_out_links": 4, "cycle_min_s": 105.0, "cycle_max_s": 118.0, "n_hours": 24}}, {"type": "Feature", "geometry": {"type": "Point", "coordinates": [141.394366, 43.104476]}, "properties": {"jartic_id": "3001-59", "intersection": 59, "in_cordon": false, "n_phases": 6, "n_in_links": 4, "n_out_links": 4, "cycle_min_s": 115.0, "cycle_max_s": 125.5, "n_hours": 24}}, {"type": "Feature", "geometry": {"type": "Point", "coordinates": [141.388472, 43.099505]}, "properties": {"jartic_id": "3001-60", "intersection": 60, "in_cordon": false, "n_phases": 6, "n_in_links": 4, "n_out_links": 4, "cycle_min_s": 105.0, "cycle_max_s": 165.0, "n_hours": 24}}, {"type": "Feature", "geometry": {"type": "Point", "coordinates": [141.299668, 43.072892]}, "properties": {"jartic_id": "3001-61", "intersection": 61, "in_cordon": false, "n_phases": 6, "n_in_links": 4, "n_out_links": 4, "cycle_min_s": 95.0, "cycle_max_s": 136.42, "n_hours": 24}}, {"type": "Feature", "geometry": {"type": "Point", "coordinates": [141.319829, 43.058369]}, "properties": {"jartic_id": "3001-62", "intersection": 62, "in_cordon": false, "n_phases": 5, "n_in_links": 4, "n_out_links": 4, "cycle_min_s": 116.21, "cycle_max_s": 125.0, "n_hours": 24}}, {"type": "Feature", "geometry": {"type": "Point", "coordinates": [141.318805, 43.062444]}, "properties": {"jartic_id": "3001-63", "intersection": 63, "in_cordon": false, "n_phases": 5, "n_in_links": 4, "n_out_links": 4, "cycle_min_s": 105.0, "cycle_max_s": 125.0, "n_hours": 24}}, {"type": "Feature", "geometry": {"type": "Point", "coordinates": [141.306969, 43.079566]}, "properties": {"jartic_id": "3001-64", "intersection": 64, "in_cordon": false, "n_phases": 6, "n_in_links": 4, "n_out_links": 4, "cycle_min_s": 115.0, "cycle_max_s": 117.72, "n_hours": 24}}, {"type": "Feature", "geometry": {"type": "Point", "coordinates": [141.241715, 43.116969]}, "properties": {"jartic_id": "3001-65", "intersection": 65, "in_cordon": false, "n_phases": 5, "n_in_links": 3, "n_out_links": 3, "cycle_min_s": 125.0, "cycle_max_s": 129.28, "n_hours": 24}}, {"type": "Feature", "geometry": {"type": "Point", "coordinates": [141.282878, 43.074791]}, "properties": {"jartic_id": "3001-66", "intersection": 66, "in_cordon": false, "n_phases": 6, "n_in_links": 4, "n_out_links": 4, "cycle_min_s": 95.0, "cycle_max_s": 119.75, "n_hours": 24}}, {"type": "Feature", "geometry": {"type": "Point", "coordinates": [141.303219, 43.076142]}, "properties": {"jartic_id": "3001-67", "intersection": 67, "in_cordon": false, "n_phases": 6, "n_in_links": 4, "n_out_links": 4, "cycle_min_s": 115.0, "cycle_max_s": 117.72, "n_hours": 24}}, {"type": "Feature", "geometry": {"type": "Point", "coordinates": [141.315123, 43.087024]}, "properties": {"jartic_id": "3001-68", "intersection": 68, "in_cordon": false, "n_phases": 6, "n_in_links": 4, "n_out_links": 4, "cycle_min_s": 95.0, "cycle_max_s": 117.92, "n_hours": 24}}, {"type": "Feature", "geometry": {"type": "Point", "coordinates": [141.320421, 43.05587]}, "properties": {"jartic_id": "3001-69", "intersection": 69, "in_cordon": false, "n_phases": 5, "n_in_links": 4, "n_out_links": 4, "cycle_min_s": 90.0, "cycle_max_s": 120.0, "n_hours": 24}}, {"type": "Feature", "geometry": {"type": "Point", "coordinates": [141.3233, 43.046029]}, "properties": {"jartic_id": "3001-70", "intersection": 70, "in_cordon": false, "n_phases": 5, "n_in_links": 4, "n_out_links": 4, "cycle_min_s": 115.0, "cycle_max_s": 125.0, "n_hours": 24}}, {"type": "Feature", "geometry": {"type": "Point", "coordinates": [141.308294, 43.068076]}, "properties": {"jartic_id": "3001-71", "intersection": 71, "in_cordon": false, "n_phases": 6, "n_in_links": 4, "n_out_links": 4, "cycle_min_s": 95.0, "cycle_max_s": 136.42, "n_hours": 24}}, {"type": "Feature", "geometry": {"type": "Point", "coordinates": [141.269688, 43.090296]}, "properties": {"jartic_id": "3001-72", "intersection": 72, "in_cordon": false, "n_phases": 5, "n_in_links": 3, "n_out_links": 3, "cycle_min_s": 110.0, "cycle_max_s": 125.0, "n_hours": 24}}, {"type": "Feature", "geometry": {"type": "Point", "coordinates": [141.297686, 43.097327]}, "properties": {"jartic_id": "3001-73", "intersection": 73, "in_cordon": false, "n_phases": 6, "n_in_links": 4, "n_out_links": 4, "cycle_min_s": 120.0, "cycle_max_s": 129.99, "n_hours": 24}}, {"type": "Feature", "geometry": {"type": "Point", "coordinates": [141.315968, 43.05527]}, "properties": {"jartic_id": "3001-74", "intersection": 74, "in_cordon": false, "n_phases": 4, "n_in_links": 3, "n_out_links": 3, "cycle_min_s": 115.0, "cycle_max_s": 125.0, "n_hours": 24}}, {"type": "Feature", "geometry": {"type": "Point", "coordinates": [141.314412, 43.061844]}, "properties": {"jartic_id": "3001-75", "intersection": 75, "in_cordon": false, "n_phases": 6, "n_in_links": 4, "n_out_links": 4, "cycle_min_s": 105.0, "cycle_max_s": 125.0, "n_hours": 24}}, {"type": "Feature", "geometry": {"type": "Point", "coordinates": [141.236108, 43.121035]}, "properties": {"jartic_id": "3001-76", "intersection": 76, "in_cordon": false, "n_phases": 5, "n_in_links": 3, "n_out_links": 3, "cycle_min_s": 125.0, "cycle_max_s": 129.28, "n_hours": 24}}, {"type": "Feature", "geometry": {"type": "Point", "coordinates": [141.311258, 43.071451]}, "properties": {"jartic_id": "3001-77", "intersection": 77, "in_cordon": false, "n_phases": 5, "n_in_links": 4, "n_out_links": 4, "cycle_min_s": 100.0, "cycle_max_s": 118.35, "n_hours": 24}}, {"type": "Feature", "geometry": {"type": "Point", "coordinates": [141.280732, 43.072825]}, "properties": {"jartic_id": "3001-78", "intersection": 78, "in_cordon": false, "n_phases": 6, "n_in_links": 4, "n_out_links": 4, "cycle_min_s": 100.12, "cycle_max_s": 119.04, "n_hours": 24}}, {"type": "Feature", "geometry": {"type": "Point", "coordinates": [141.322315, 43.082784]}, "properties": {"jartic_id": "3001-79", "intersection": 79, "in_cordon": false, "n_phases": 4, "n_in_links": 4, "n_out_links": 4, "cycle_min_s": 125.0, "cycle_max_s": 129.44, "n_hours": 24}}, {"type": "Feature", "geometry": {"type": "Point", "coordinates": [141.314091, 43.065069]}, "properties": {"jartic_id": "3001-80", "intersection": 80, "in_cordon": false, "n_phases": 6, "n_in_links": 4, "n_out_links": 4, "cycle_min_s": 105.0, "cycle_max_s": 125.0, "n_hours": 24}}, {"type": "Feature", "geometry": {"type": "Point", "coordinates": [141.316626, 43.069216]}, "properties": {"jartic_id": "3001-81", "intersection": 81, "in_cordon": false, "n_phases": 6, "n_in_links": 4, "n_out_links": 4, "cycle_min_s": 115.0, "cycle_max_s": 126.04, "n_hours": 24}}, {"type": "Feature", "geometry": {"type": "Point", "coordinates": [141.254021, 43.126035]}, "properties": {"jartic_id": "3001-82", "intersection": 82, "in_cordon": false, "n_phases": 6, "n_in_links": 4, "n_out_links": 4, "cycle_min_s": 105.0, "cycle_max_s": 129.99, "n_hours": 24}}, {"type": "Feature", "geometry": {"type": "Point", "coordinates": [141.278068, 43.109346]}, "properties": {"jartic_id": "3001-83", "intersection": 83, "in_cordon": false, "n_phases": 6, "n_in_links": 4, "n_out_links": 4, "cycle_min_s": 115.0, "cycle_max_s": 129.99, "n_hours": 24}}, {"type": "Feature", "geometry": {"type": "Point", "coordinates": [141.262357, 43.094588]}, "properties": {"jartic_id": "3001-84", "intersection": 84, "in_cordon": false, "n_phases": 6, "n_in_links": 4, "n_out_links": 4, "cycle_min_s": 110.0, "cycle_max_s": 125.0, "n_hours": 24}}, {"type": "Feature", "geometry": {"type": "Point", "coordinates": [141.307996, 43.100576]}, "properties": {"jartic_id": "3001-85", "intersection": 85, "in_cordon": false, "n_phases": 5, "n_in_links": 3, "n_out_links": 3, "cycle_min_s": 120.0, "cycle_max_s": 120.81, "n_hours": 24}}, {"type": "Feature", "geometry": {"type": "Point", "coordinates": [141.326878, 43.08695]}, "properties": {"jartic_id": "3001-86", "intersection": 86, "in_cordon": false, "n_phases": 5, "n_in_links": 3, "n_out_links": 3, "cycle_min_s": 95.0, "cycle_max_s": 127.58, "n_hours": 24}}, {"type": "Feature", "geometry": {"type": "Point", "coordinates": [141.275092, 43.091235]}, "properties": {"jartic_id": "3001-87", "intersection": 87, "in_cordon": false, "n_phases": 6, "n_in_links": 4, "n_out_links": 4, "cycle_min_s": 135.0, "cycle_max_s": 135.0, "n_hours": 24}}, {"type": "Feature", "geometry": {"type": "Point", "coordinates": [141.342647, 43.048463]}, "properties": {"jartic_id": "3001-88", "intersection": 88, "in_cordon": false, "n_phases": 6, "n_in_links": 4, "n_out_links": 4, "cycle_min_s": 105.0, "cycle_max_s": 125.0, "n_hours": 24}}, {"type": "Feature", "geometry": {"type": "Point", "coordinates": [141.352056, 43.031257]}, "properties": {"jartic_id": "3001-89", "intersection": 89, "in_cordon": false, "n_phases": 4, "n_in_links": 3, "n_out_links": 3, "cycle_min_s": 120.0, "cycle_max_s": 130.0, "n_hours": 24}}, {"type": "Feature", "geometry": {"type": "Point", "coordinates": [141.350741, 43.041323]}, "properties": {"jartic_id": "3001-90", "intersection": 90, "in_cordon": false, "n_phases": 4, "n_in_links": 4, "n_out_links": 4, "cycle_min_s": 90.0, "cycle_max_s": 116.03, "n_hours": 24}}, {"type": "Feature", "geometry": {"type": "Point", "coordinates": [141.335506, 43.04798]}, "properties": {"jartic_id": "3001-91", "intersection": 91, "in_cordon": false, "n_phases": 4, "n_in_links": 4, "n_out_links": 4, "cycle_min_s": 85.0, "cycle_max_s": 113.08, "n_hours": 24}}, {"type": "Feature", "geometry": {"type": "Point", "coordinates": [141.34635, 43.018767]}, "properties": {"jartic_id": "3001-92", "intersection": 92, "in_cordon": false, "n_phases": 6, "n_in_links": 4, "n_out_links": 4, "cycle_min_s": 105.0, "cycle_max_s": 143.17, "n_hours": 24}}, {"type": "Feature", "geometry": {"type": "Point", "coordinates": [141.348075, 43.005243]}, "properties": {"jartic_id": "3001-93", "intersection": 93, "in_cordon": false, "n_phases": 4, "n_in_links": 3, "n_out_links": 3, "cycle_min_s": 80.0, "cycle_max_s": 138.49, "n_hours": 24}}, {"type": "Feature", "geometry": {"type": "Point", "coordinates": [141.355054, 43.048864]}, "properties": {"jartic_id": "3001-94", "intersection": 94, "in_cordon": false, "n_phases": 5, "n_in_links": 3, "n_out_links": 3, "cycle_min_s": 100.0, "cycle_max_s": 125.0, "n_hours": 24}}, {"type": "Feature", "geometry": {"type": "Point", "coordinates": [141.337754, 43.030323]}, "properties": {"jartic_id": "3001-95", "intersection": 95, "in_cordon": false, "n_phases": 6, "n_in_links": 4, "n_out_links": 4, "cycle_min_s": 175.0, "cycle_max_s": 175.0, "n_hours": 24}}, {"type": "Feature", "geometry": {"type": "Point", "coordinates": [141.334745, 43.033448]}, "properties": {"jartic_id": "3001-96", "intersection": 96, "in_cordon": false, "n_phases": 5, "n_in_links": 4, "n_out_links": 4, "cycle_min_s": 85.0, "cycle_max_s": 118.69, "n_hours": 24}}, {"type": "Feature", "geometry": {"type": "Point", "coordinates": [141.356067, 43.040206]}, "properties": {"jartic_id": "3001-97", "intersection": 97, "in_cordon": false, "n_phases": 5, "n_in_links": 4, "n_out_links": 4, "cycle_min_s": 120.0, "cycle_max_s": 132.61, "n_hours": 24}}, {"type": "Feature", "geometry": {"type": "Point", "coordinates": [141.344453, 43.034131]}, "properties": {"jartic_id": "3001-98", "intersection": 98, "in_cordon": false, "n_phases": 6, "n_in_links": 4, "n_out_links": 4, "cycle_min_s": 105.0, "cycle_max_s": 125.0, "n_hours": 24}}, {"type": "Feature", "geometry": {"type": "Point", "coordinates": [141.336911, 43.036989]}, "properties": {"jartic_id": "3001-99", "intersection": 99, "in_cordon": false, "n_phases": 4, "n_in_links": 4, "n_out_links": 4, "cycle_min_s": 85.0, "cycle_max_s": 113.08, "n_hours": 24}}, {"type": "Feature", "geometry": {"type": "Point", "coordinates": [141.345156, 43.010151]}, "properties": {"jartic_id": "3001-100", "intersection": 100, "in_cordon": false, "n_phases": 6, "n_in_links": 3, "n_out_links": 3, "cycle_min_s": 105.0, "cycle_max_s": 147.75, "n_hours": 24}}, {"type": "Feature", "geometry": {"type": "Point", "coordinates": [141.33563, 42.983154]}, "properties": {"jartic_id": "3001-101", "intersection": 101, "in_cordon": false, "n_phases": 4, "n_in_links": 3, "n_out_links": 3, "cycle_min_s": 100.0, "cycle_max_s": 139.01, "n_hours": 24}}, {"type": "Feature", "geometry": {"type": "Point", "coordinates": [141.348938, 42.998127]}, "properties": {"jartic_id": "3001-102", "intersection": 102, "in_cordon": false, "n_phases": 6, "n_in_links": 4, "n_out_links": 4, "cycle_min_s": 80.0, "cycle_max_s": 133.04, "n_hours": 24}}, {"type": "Feature", "geometry": {"type": "Point", "coordinates": [141.353916, 43.034803]}, "properties": {"jartic_id": "3001-103", "intersection": 103, "in_cordon": false, "n_phases": 5, "n_in_links": 3, "n_out_links": 3, "cycle_min_s": 105.0, "cycle_max_s": 117.33, "n_hours": 24}}, {"type": "Feature", "geometry": {"type": "Point", "coordinates": [141.344927, 42.9742]}, "properties": {"jartic_id": "3001-104", "intersection": 104, "in_cordon": false, "n_phases": 5, "n_in_links": 4, "n_out_links": 4, "cycle_min_s": 105.0, "cycle_max_s": 141.9, "n_hours": 24}}, {"type": "Feature", "geometry": {"type": "Point", "coordinates": [141.324126, 42.963689]}, "properties": {"jartic_id": "3001-105", "intersection": 105, "in_cordon": false, "n_phases": 4, "n_in_links": 3, "n_out_links": 3, "cycle_min_s": 100.0, "cycle_max_s": 117.31, "n_hours": 24}}, {"type": "Feature", "geometry": {"type": "Point", "coordinates": [141.168125, 42.9673]}, "properties": {"jartic_id": "3001-106", "intersection": 106, "in_cordon": false, "n_phases": 4, "n_in_links": 3, "n_out_links": 3, "cycle_min_s": 90.0, "cycle_max_s": 108.33, "n_hours": 24}}, {"type": "Feature", "geometry": {"type": "Point", "coordinates": [141.183634, 42.968509]}, "properties": {"jartic_id": "3001-107", "intersection": 107, "in_cordon": false, "n_phases": 5, "n_in_links": 3, "n_out_links": 3, "cycle_min_s": 90.0, "cycle_max_s": 168.57, "n_hours": 24}}, {"type": "Feature", "geometry": {"type": "Point", "coordinates": [141.348092, 43.069978]}, "properties": {"jartic_id": "3001-108", "intersection": 108, "in_cordon": false, "n_phases": 4, "n_in_links": 4, "n_out_links": 4, "cycle_min_s": 90.0, "cycle_max_s": 125.0, "n_hours": 24}}, {"type": "Feature", "geometry": {"type": "Point", "coordinates": [141.342975, 43.090167]}, "properties": {"jartic_id": "3001-109", "intersection": 109, "in_cordon": false, "n_phases": 6, "n_in_links": 4, "n_out_links": 4, "cycle_min_s": 90.08, "cycle_max_s": 125.0, "n_hours": 24}}, {"type": "Feature", "geometry": {"type": "Point", "coordinates": [141.345212, 43.081434]}, "properties": {"jartic_id": "3001-110", "intersection": 110, "in_cordon": false, "n_phases": 5, "n_in_links": 4, "n_out_links": 4, "cycle_min_s": 95.0, "cycle_max_s": 125.0, "n_hours": 24}}, {"type": "Feature", "geometry": {"type": "Point", "coordinates": [141.344972, 43.069544]}, "properties": {"jartic_id": "3001-111", "intersection": 111, "in_cordon": false, "n_phases": 4, "n_in_links": 3, "n_out_links": 2, "cycle_min_s": 70.0, "cycle_max_s": 125.0, "n_hours": 24}}, {"type": "Feature", "geometry": {"type": "Point", "coordinates": [141.335773, 43.110565]}, "properties": {"jartic_id": "3001-112", "intersection": 112, "in_cordon": false, "n_phases": 6, "n_in_links": 4, "n_out_links": 4, "cycle_min_s": 115.0, "cycle_max_s": 126.31, "n_hours": 24}}, {"type": "Feature", "geometry": {"type": "Point", "coordinates": [141.33819, 43.109298]}, "properties": {"jartic_id": "3001-113", "intersection": 113, "in_cordon": false, "n_phases": 6, "n_in_links": 5, "n_out_links": 5, "cycle_min_s": 115.0, "cycle_max_s": 136.01, "n_hours": 24}}, {"type": "Feature", "geometry": {"type": "Point", "coordinates": [141.320238, 43.092582]}, "properties": {"jartic_id": "3001-114", "intersection": 114, "in_cordon": false, "n_phases": 5, "n_in_links": 3, "n_out_links": 3, "cycle_min_s": 95.0, "cycle_max_s": 115.0, "n_hours": 24}}, {"type": "Feature", "geometry": {"type": "Point", "coordinates": [141.327379, 43.087416]}, "properties": {"jartic_id": "3001-115", "intersection": 115, "in_cordon": false, "n_phases": 4, "n_in_links": 3, "n_out_links": 3, "cycle_min_s": 95.0, "cycle_max_s": 127.58, "n_hours": 24}}, {"type": "Feature", "geometry": {"type": "Point", "coordinates": [141.334591, 43.089042]}, "properties": {"jartic_id": "3001-116", "intersection": 116, "in_cordon": false, "n_phases": 4, "n_in_links": 3, "n_out_links": 3, "cycle_min_s": 90.0, "cycle_max_s": 125.0, "n_hours": 24}}, {"type": "Feature", "geometry": {"type": "Point", "coordinates": [141.308859, 43.100849]}, "properties": {"jartic_id": "3001-117", "intersection": 117, "in_cordon": false, "n_phases": 4, "n_in_links": 3, "n_out_links": 3, "cycle_min_s": 120.0, "cycle_max_s": 120.81, "n_hours": 24}}, {"type": "Feature", "geometry": {"type": "Point", "coordinates": [141.340322, 43.100661]}, "properties": {"jartic_id": "3001-118", "intersection": 118, "in_cordon": false, "n_phases": 6, "n_in_links": 4, "n_out_links": 4, "cycle_min_s": 124.89, "cycle_max_s": 165.0, "n_hours": 24}}, {"type": "Feature", "geometry": {"type": "Point", "coordinates": [141.344958, 43.101284]}, "properties": {"jartic_id": "3001-119", "intersection": 119, "in_cordon": false, "n_phases": 6, "n_in_links": 4, "n_out_links": 4, "cycle_min_s": 125.69, "cycle_max_s": 165.0, "n_hours": 24}}, {"type": "Feature", "geometry": {"type": "Point", "coordinates": [141.350413, 43.082131]}, "properties": {"jartic_id": "3001-120", "intersection": 120, "in_cordon": false, "n_phases": 5, "n_in_links": 4, "n_out_links": 4, "cycle_min_s": 100.0, "cycle_max_s": 125.0, "n_hours": 24}}, {"type": "Feature", "geometry": {"type": "Point", "coordinates": [141.347709, 43.090809]}, "properties": {"jartic_id": "3001-121", "intersection": 121, "in_cordon": false, "n_phases": 5, "n_in_links": 4, "n_out_links": 4, "cycle_min_s": 95.0, "cycle_max_s": 125.0, "n_hours": 24}}, {"type": "Feature", "geometry": {"type": "Point", "coordinates": [141.34724, 43.134243]}, "properties": {"jartic_id": "3001-122", "intersection": 122, "in_cordon": false, "n_phases": 5, "n_in_links": 4, "n_out_links": 4, "cycle_min_s": 125.0, "cycle_max_s": 130.0, "n_hours": 24}}, {"type": "Feature", "geometry": {"type": "Point", "coordinates": [141.339139, 43.068453]}, "properties": {"jartic_id": "3001-123", "intersection": 123, "in_cordon": false, "n_phases": 4, "n_in_links": 3, "n_out_links": 3, "cycle_min_s": 80.0, "cycle_max_s": 125.06, "n_hours": 24}}, {"type": "Feature", "geometry": {"type": "Point", "coordinates": [141.370598, 43.243767]}, "properties": {"jartic_id": "3001-124", "intersection": 124, "in_cordon": false, "n_phases": 5, "n_in_links": 4, "n_out_links": 4, "cycle_min_s": 90.0, "cycle_max_s": 110.07, "n_hours": 24}}, {"type": "Feature", "geometry": {"type": "Point", "coordinates": [141.326074, 43.115746]}, "properties": {"jartic_id": "3001-125", "intersection": 125, "in_cordon": false, "n_phases": 6, "n_in_links": 4, "n_out_links": 4, "cycle_min_s": 95.0, "cycle_max_s": 101.14, "n_hours": 24}}, {"type": "Feature", "geometry": {"type": "Point", "coordinates": [141.349865, 43.145237]}, "properties": {"jartic_id": "3001-126", "intersection": 126, "in_cordon": false, "n_phases": 6, "n_in_links": 3, "n_out_links": 3, "cycle_min_s": 125.0, "cycle_max_s": 130.0, "n_hours": 24}}, {"type": "Feature", "geometry": {"type": "Point", "coordinates": [141.307137, 43.126102]}, "properties": {"jartic_id": "3001-127", "intersection": 127, "in_cordon": false, "n_phases": 6, "n_in_links": 4, "n_out_links": 4, "cycle_min_s": 100.0, "cycle_max_s": 124.69, "n_hours": 24}}, {"type": "Feature", "geometry": {"type": "Point", "coordinates": [141.358498, 43.144009]}, "properties": {"jartic_id": "3001-128", "intersection": 128, "in_cordon": false, "n_phases": 5, "n_in_links": 4, "n_out_links": 4, "cycle_min_s": 110.0, "cycle_max_s": 129.88, "n_hours": 24}}, {"type": "Feature", "geometry": {"type": "Point", "coordinates": [141.353008, 43.158811]}, "properties": {"jartic_id": "3001-129", "intersection": 129, "in_cordon": false, "n_phases": 5, "n_in_links": 3, "n_out_links": 3, "cycle_min_s": 125.0, "cycle_max_s": 130.0, "n_hours": 24}}, {"type": "Feature", "geometry": {"type": "Point", "coordinates": [141.323856, 43.185042]}, "properties": {"jartic_id": "3001-130", "intersection": 130, "in_cordon": false, "n_phases": 4, "n_in_links": 3, "n_out_links": 4, "cycle_min_s": 100.0, "cycle_max_s": 126.3, "n_hours": 24}}, {"type": "Feature", "geometry": {"type": "Point", "coordinates": [141.354632, 43.13024]}, "properties": {"jartic_id": "3001-131", "intersection": 131, "in_cordon": false, "n_phases": 5, "n_in_links": 4, "n_out_links": 4, "cycle_min_s": 110.0, "cycle_max_s": 129.88, "n_hours": 24}}, {"type": "Feature", "geometry": {"type": "Point", "coordinates": [141.385342, 43.061963]}, "properties": {"jartic_id": "3001-132", "intersection": 132, "in_cordon": false, "n_phases": 5, "n_in_links": 4, "n_out_links": 4, "cycle_min_s": 110.0, "cycle_max_s": 135.79, "n_hours": 24}}, {"type": "Feature", "geometry": {"type": "Point", "coordinates": [141.403571, 43.052473]}, "properties": {"jartic_id": "3001-133", "intersection": 133, "in_cordon": false, "n_phases": 6, "n_in_links": 4, "n_out_links": 4, "cycle_min_s": 120.0, "cycle_max_s": 139.88, "n_hours": 24}}, {"type": "Feature", "geometry": {"type": "Point", "coordinates": [141.396514, 43.04613]}, "properties": {"jartic_id": "3001-134", "intersection": 134, "in_cordon": false, "n_phases": 6, "n_in_links": 4, "n_out_links": 4, "cycle_min_s": 120.0, "cycle_max_s": 139.88, "n_hours": 24}}, {"type": "Feature", "geometry": {"type": "Point", "coordinates": [141.375133, 43.055344]}, "properties": {"jartic_id": "3001-135", "intersection": 135, "in_cordon": false, "n_phases": 4, "n_in_links": 3, "n_out_links": 3, "cycle_min_s": 130.0, "cycle_max_s": 131.95, "n_hours": 24}}, {"type": "Feature", "geometry": {"type": "Point", "coordinates": [141.411877, 43.039975]}, "properties": {"jartic_id": "3001-136", "intersection": 136, "in_cordon": false, "n_phases": 4, "n_in_links": 4, "n_out_links": 4, "cycle_min_s": 110.0, "cycle_max_s": 140.0, "n_hours": 24}}, {"type": "Feature", "geometry": {"type": "Point", "coordinates": [141.37963, 43.055437]}, "properties": {"jartic_id": "3001-137", "intersection": 137, "in_cordon": false, "n_phases": 3, "n_in_links": 4, "n_out_links": 5, "cycle_min_s": 90.0, "cycle_max_s": 121.97, "n_hours": 24}}, {"type": "Feature", "geometry": {"type": "Point", "coordinates": [141.438295, 43.032993]}, "properties": {"jartic_id": "3001-138", "intersection": 138, "in_cordon": false, "n_phases": 4, "n_in_links": 4, "n_out_links": 4, "cycle_min_s": 95.0, "cycle_max_s": 129.49, "n_hours": 24}}, {"type": "Feature", "geometry": {"type": "Point", "coordinates": [141.435164, 43.030328]}, "properties": {"jartic_id": "3001-139", "intersection": 139, "in_cordon": false, "n_phases": 6, "n_in_links": 4, "n_out_links": 4, "cycle_min_s": 120.0, "cycle_max_s": 140.0, "n_hours": 24}}, {"type": "Feature", "geometry": {"type": "Point", "coordinates": [141.419072, 43.047665]}, "properties": {"jartic_id": "3001-140", "intersection": 140, "in_cordon": false, "n_phases": 6, "n_in_links": 4, "n_out_links": 4, "cycle_min_s": 80.0, "cycle_max_s": 112.54, "n_hours": 24}}, {"type": "Feature", "geometry": {"type": "Point", "coordinates": [141.407608, 43.06283]}, "properties": {"jartic_id": "3001-141", "intersection": 141, "in_cordon": false, "n_phases": 6, "n_in_links": 4, "n_out_links": 4, "cycle_min_s": 120.0, "cycle_max_s": 139.88, "n_hours": 24}}, {"type": "Feature", "geometry": {"type": "Point", "coordinates": [141.407738, 43.071788]}, "properties": {"jartic_id": "3001-142", "intersection": 142, "in_cordon": false, "n_phases": 6, "n_in_links": 4, "n_out_links": 4, "cycle_min_s": 115.0, "cycle_max_s": 149.96, "n_hours": 24}}, {"type": "Feature", "geometry": {"type": "Point", "coordinates": [141.401329, 43.068047]}, "properties": {"jartic_id": "3001-143", "intersection": 143, "in_cordon": false, "n_phases": 6, "n_in_links": 4, "n_out_links": 4, "cycle_min_s": 100.0, "cycle_max_s": 130.0, "n_hours": 24}}, {"type": "Feature", "geometry": {"type": "Point", "coordinates": [141.439202, 43.039588]}, "properties": {"jartic_id": "3001-144", "intersection": 144, "in_cordon": false, "n_phases": 6, "n_in_links": 4, "n_out_links": 4, "cycle_min_s": 115.0, "cycle_max_s": 144.89, "n_hours": 24}}, {"type": "Feature", "geometry": {"type": "Point", "coordinates": [141.427442, 43.056163]}, "properties": {"jartic_id": "3001-145", "intersection": 145, "in_cordon": false, "n_phases": 6, "n_in_links": 4, "n_out_links": 4, "cycle_min_s": 115.0, "cycle_max_s": 144.89, "n_hours": 24}}, {"type": "Feature", "geometry": {"type": "Point", "coordinates": [141.424418, 43.052848]}, "properties": {"jartic_id": "3001-146", "intersection": 146, "in_cordon": false, "n_phases": 6, "n_in_links": 4, "n_out_links": 4, "cycle_min_s": 100.0, "cycle_max_s": 113.68, "n_hours": 24}}, {"type": "Feature", "geometry": {"type": "Point", "coordinates": [141.420674, 43.076117]}, "properties": {"jartic_id": "3001-147", "intersection": 147, "in_cordon": false, "n_phases": 4, "n_in_links": 3, "n_out_links": 3, "cycle_min_s": 90.0, "cycle_max_s": 120.0, "n_hours": 24}}, {"type": "Feature", "geometry": {"type": "Point", "coordinates": [141.368302, 43.05333]}, "properties": {"jartic_id": "3001-148", "intersection": 148, "in_cordon": false, "n_phases": 4, "n_in_links": 4, "n_out_links": 4, "cycle_min_s": 100.0, "cycle_max_s": 130.0, "n_hours": 24}}, {"type": "Feature", "geometry": {"type": "Point", "coordinates": [141.382114, 43.044773]}, "properties": {"jartic_id": "3001-149", "intersection": 149, "in_cordon": false, "n_phases": 6, "n_in_links": 4, "n_out_links": 4, "cycle_min_s": 95.0, "cycle_max_s": 130.0, "n_hours": 24}}, {"type": "Feature", "geometry": {"type": "Point", "coordinates": [141.367988, 43.0268]}, "properties": {"jartic_id": "3001-150", "intersection": 150, "in_cordon": false, "n_phases": 6, "n_in_links": 4, "n_out_links": 4, "cycle_min_s": 115.0, "cycle_max_s": 127.72, "n_hours": 24}}, {"type": "Feature", "geometry": {"type": "Point", "coordinates": [141.360911, 43.037682]}, "properties": {"jartic_id": "3001-151", "intersection": 151, "in_cordon": false, "n_phases": 4, "n_in_links": 4, "n_out_links": 4, "cycle_min_s": 110.0, "cycle_max_s": 132.61, "n_hours": 24}}, {"type": "Feature", "geometry": {"type": "Point", "coordinates": [141.392775, 43.035983]}, "properties": {"jartic_id": "3001-152", "intersection": 152, "in_cordon": false, "n_phases": 6, "n_in_links": 4, "n_out_links": 4, "cycle_min_s": 110.0, "cycle_max_s": 130.0, "n_hours": 24}}, {"type": "Feature", "geometry": {"type": "Point", "coordinates": [141.396376, 43.037249]}, "properties": {"jartic_id": "3001-153", "intersection": 153, "in_cordon": false, "n_phases": 4, "n_in_links": 4, "n_out_links": 4, "cycle_min_s": 85.0, "cycle_max_s": 119.75, "n_hours": 24}}, {"type": "Feature", "geometry": {"type": "Point", "coordinates": [141.399286, 43.025243]}, "properties": {"jartic_id": "3001-154", "intersection": 154, "in_cordon": false, "n_phases": 6, "n_in_links": 4, "n_out_links": 4, "cycle_min_s": 110.0, "cycle_max_s": 130.0, "n_hours": 24}}, {"type": "Feature", "geometry": {"type": "Point", "coordinates": [141.369131, 43.034545]}, "properties": {"jartic_id": "3001-155", "intersection": 155, "in_cordon": false, "n_phases": 5, "n_in_links": 4, "n_out_links": 4, "cycle_min_s": 90.0, "cycle_max_s": 108.43, "n_hours": 24}}, {"type": "Feature", "geometry": {"type": "Point", "coordinates": [141.36888, 43.049711]}, "properties": {"jartic_id": "3001-156", "intersection": 156, "in_cordon": false, "n_phases": 6, "n_in_links": 5, "n_out_links": 5, "cycle_min_s": 145.0, "cycle_max_s": 147.81, "n_hours": 24}}, {"type": "Feature", "geometry": {"type": "Point", "coordinates": [141.389746, 43.04002]}, "properties": {"jartic_id": "3001-157", "intersection": 157, "in_cordon": false, "n_phases": 6, "n_in_links": 4, "n_out_links": 4, "cycle_min_s": 120.0, "cycle_max_s": 130.0, "n_hours": 24}}, {"type": "Feature", "geometry": {"type": "Point", "coordinates": [141.391813, 43.023701]}, "properties": {"jartic_id": "3001-158", "intersection": 158, "in_cordon": false, "n_phases": 6, "n_in_links": 4, "n_out_links": 4, "cycle_min_s": 100.0, "cycle_max_s": 125.47, "n_hours": 24}}, {"type": "Feature", "geometry": {"type": "Point", "coordinates": [141.383197, 43.045615]}, "properties": {"jartic_id": "3001-159", "intersection": 159, "in_cordon": false, "n_phases": 4, "n_in_links": 4, "n_out_links": 4, "cycle_min_s": 80.29, "cycle_max_s": 106.17, "n_hours": 24}}, {"type": "Feature", "geometry": {"type": "Point", "coordinates": [141.441722, 42.997551]}, "properties": {"jartic_id": "3001-160", "intersection": 160, "in_cordon": false, "n_phases": 6, "n_in_links": 4, "n_out_links": 4, "cycle_min_s": 105.0, "cycle_max_s": 130.0, "n_hours": 24}}, {"type": "Feature", "geometry": {"type": "Point", "coordinates": [141.362185, 43.048572]}, "properties": {"jartic_id": "3001-161", "intersection": 161, "in_cordon": false, "n_phases": 5, "n_in_links": 3, "n_out_links": 3, "cycle_min_s": 110.0, "cycle_max_s": 125.21, "n_hours": 24}}, {"type": "Feature", "geometry": {"type": "Point", "coordinates": [141.363679, 43.052139]}, "properties": {"jartic_id": "3001-162", "intersection": 162, "in_cordon": false, "n_phases": 5, "n_in_links": 3, "n_out_links": 3, "cycle_min_s": 90.0, "cycle_max_s": 106.15, "n_hours": 24}}, {"type": "Feature", "geometry": {"type": "Point", "coordinates": [141.366339, 43.015551]}, "properties": {"jartic_id": "3001-163", "intersection": 163, "in_cordon": false, "n_phases": 5, "n_in_links": 4, "n_out_links": 4, "cycle_min_s": 115.0, "cycle_max_s": 130.0, "n_hours": 24}}, {"type": "Feature", "geometry": {"type": "Point", "coordinates": [141.359488, 43.034091]}, "properties": {"jartic_id": "3001-164", "intersection": 164, "in_cordon": false, "n_phases": 4, "n_in_links": 4, "n_out_links": 4, "cycle_min_s": 90.0, "cycle_max_s": 119.53, "n_hours": 24}}, {"type": "Feature", "geometry": {"type": "Point", "coordinates": [141.406246, 43.028825]}, "properties": {"jartic_id": "3001-165", "intersection": 165, "in_cordon": false, "n_phases": 6, "n_in_links": 4, "n_out_links": 4, "cycle_min_s": 80.0, "cycle_max_s": 126.69, "n_hours": 24}}, {"type": "Feature", "geometry": {"type": "Point", "coordinates": [141.408764, 43.017818]}, "properties": {"jartic_id": "3001-166", "intersection": 166, "in_cordon": false, "n_phases": 6, "n_in_links": 4, "n_out_links": 4, "cycle_min_s": 105.0, "cycle_max_s": 130.0, "n_hours": 24}}, {"type": "Feature", "geometry": {"type": "Point", "coordinates": [141.381081, 43.032231]}, "properties": {"jartic_id": "3001-167", "intersection": 167, "in_cordon": false, "n_phases": 6, "n_in_links": 4, "n_out_links": 4, "cycle_min_s": 130.0, "cycle_max_s": 148.33, "n_hours": 24}}, {"type": "Feature", "geometry": {"type": "Point", "coordinates": [141.385395, 43.005878]}, "properties": {"jartic_id": "3001-168", "intersection": 168, "in_cordon": false, "n_phases": 5, "n_in_links": 4, "n_out_links": 4, "cycle_min_s": 90.0, "cycle_max_s": 127.79, "n_hours": 24}}, {"type": "Feature", "geometry": {"type": "Point", "coordinates": [141.444721, 43.003871]}, "properties": {"jartic_id": "3001-169", "intersection": 169, "in_cordon": false, "n_phases": 6, "n_in_links": 4, "n_out_links": 4, "cycle_min_s": 120.0, "cycle_max_s": 130.0, "n_hours": 24}}, {"type": "Feature", "geometry": {"type": "Point", "coordinates": [141.381011, 43.024792]}, "properties": {"jartic_id": "3001-170", "intersection": 170, "in_cordon": false, "n_phases": 6, "n_in_links": 4, "n_out_links": 4, "cycle_min_s": 115.0, "cycle_max_s": 127.72, "n_hours": 24}}, {"type": "Feature", "geometry": {"type": "Point", "coordinates": [141.468407, 42.978541]}, "properties": {"jartic_id": "3001-171", "intersection": 171, "in_cordon": false, "n_phases": 6, "n_in_links": 3, "n_out_links": 3, "cycle_min_s": 110.0, "cycle_max_s": 147.33, "n_hours": 24}}, {"type": "Feature", "geometry": {"type": "Point", "coordinates": [141.434129, 43.025961]}, "properties": {"jartic_id": "3001-172", "intersection": 172, "in_cordon": false, "n_phases": 6, "n_in_links": 4, "n_out_links": 4, "cycle_min_s": 135.0, "cycle_max_s": 136.83, "n_hours": 24}}, {"type": "Feature", "geometry": {"type": "Point", "coordinates": [141.404241, 43.01335]}, "properties": {"jartic_id": "3001-173", "intersection": 173, "in_cordon": false, "n_phases": 6, "n_in_links": 4, "n_out_links": 4, "cycle_min_s": 120.0, "cycle_max_s": 140.0, "n_hours": 24}}, {"type": "Feature", "geometry": {"type": "Point", "coordinates": [141.43452, 43.011545]}, "properties": {"jartic_id": "3001-174", "intersection": 174, "in_cordon": false, "n_phases": 6, "n_in_links": 4, "n_out_links": 4, "cycle_min_s": 135.0, "cycle_max_s": 136.83, "n_hours": 24}}, {"type": "Feature", "geometry": {"type": "Point", "coordinates": [141.414972, 43.022835]}, "properties": {"jartic_id": "3001-175", "intersection": 175, "in_cordon": false, "n_phases": 6, "n_in_links": 4, "n_out_links": 4, "cycle_min_s": 100.0, "cycle_max_s": 118.92, "n_hours": 24}}, {"type": "Feature", "geometry": {"type": "Point", "coordinates": [141.429235, 43.002843]}, "properties": {"jartic_id": "3001-176", "intersection": 176, "in_cordon": false, "n_phases": 6, "n_in_links": 3, "n_out_links": 3, "cycle_min_s": 110.0, "cycle_max_s": 130.0, "n_hours": 24}}, {"type": "Feature", "geometry": {"type": "Point", "coordinates": [141.440627, 42.989116]}, "properties": {"jartic_id": "3001-177", "intersection": 177, "in_cordon": false, "n_phases": 6, "n_in_links": 4, "n_out_links": 4, "cycle_min_s": 120.0, "cycle_max_s": 130.0, "n_hours": 24}}, {"type": "Feature", "geometry": {"type": "Point", "coordinates": [141.4509, 42.989894]}, "properties": {"jartic_id": "3001-178", "intersection": 178, "in_cordon": false, "n_phases": 5, "n_in_links": 4, "n_out_links": 4, "cycle_min_s": 110.0, "cycle_max_s": 147.33, "n_hours": 24}}, {"type": "Feature", "geometry": {"type": "Point", "coordinates": [141.35671, 43.016417]}, "properties": {"jartic_id": "3001-179", "intersection": 179, "in_cordon": false, "n_phases": 6, "n_in_links": 4, "n_out_links": 4, "cycle_min_s": 125.0, "cycle_max_s": 127.85, "n_hours": 24}}, {"type": "Feature", "geometry": {"type": "Point", "coordinates": [141.464986, 42.974808]}, "properties": {"jartic_id": "3001-180", "intersection": 180, "in_cordon": false, "n_phases": 6, "n_in_links": 3, "n_out_links": 3, "cycle_min_s": 120.21, "cycle_max_s": 139.72, "n_hours": 24}}, {"type": "Feature", "geometry": {"type": "Point", "coordinates": [141.457241, 42.994356]}, "properties": {"jartic_id": "3001-181", "intersection": 181, "in_cordon": false, "n_phases": 6, "n_in_links": 3, "n_out_links": 3, "cycle_min_s": 100.0, "cycle_max_s": 127.56, "n_hours": 24}}, {"type": "Feature", "geometry": {"type": "Point", "coordinates": [141.466176, 43.009355]}, "properties": {"jartic_id": "3001-182", "intersection": 182, "in_cordon": false, "n_phases": 4, "n_in_links": 4, "n_out_links": 4, "cycle_min_s": 100.0, "cycle_max_s": 139.17, "n_hours": 24}}, {"type": "Feature", "geometry": {"type": "Point", "coordinates": [141.457126, 43.033006]}, "properties": {"jartic_id": "3001-183", "intersection": 183, "in_cordon": false, "n_phases": 6, "n_in_links": 4, "n_out_links": 4, "cycle_min_s": 120.0, "cycle_max_s": 129.49, "n_hours": 24}}, {"type": "Feature", "geometry": {"type": "Point", "coordinates": [141.47429, 42.974059]}, "properties": {"jartic_id": "3001-184", "intersection": 184, "in_cordon": false, "n_phases": 6, "n_in_links": 3, "n_out_links": 3, "cycle_min_s": 105.0, "cycle_max_s": 147.33, "n_hours": 24}}, {"type": "Feature", "geometry": {"type": "Point", "coordinates": [141.477119, 42.971859]}, "properties": {"jartic_id": "3001-185", "intersection": 185, "in_cordon": false, "n_phases": 6, "n_in_links": 4, "n_out_links": 4, "cycle_min_s": 105.0, "cycle_max_s": 147.33, "n_hours": 24}}, {"type": "Feature", "geometry": {"type": "Point", "coordinates": [141.562022, 42.997534]}, "properties": {"jartic_id": "3001-186", "intersection": 186, "in_cordon": false, "n_phases": 6, "n_in_links": 4, "n_out_links": 4, "cycle_min_s": 95.0, "cycle_max_s": 121.97, "n_hours": 24}}, {"type": "Feature", "geometry": {"type": "Point", "coordinates": [141.46574, 43.024752]}, "properties": {"jartic_id": "3001-187", "intersection": 187, "in_cordon": false, "n_phases": 5, "n_in_links": 4, "n_out_links": 2, "cycle_min_s": 115.0, "cycle_max_s": 140.0, "n_hours": 24}}, {"type": "Feature", "geometry": {"type": "Point", "coordinates": [141.460446, 43.03089]}, "properties": {"jartic_id": "3001-188", "intersection": 188, "in_cordon": false, "n_phases": 6, "n_in_links": 4, "n_out_links": 4, "cycle_min_s": 120.0, "cycle_max_s": 127.07, "n_hours": 24}}, {"type": "Feature", "geometry": {"type": "Point", "coordinates": [141.484305, 43.051493]}, "properties": {"jartic_id": "3001-189", "intersection": 189, "in_cordon": false, "n_phases": 6, "n_in_links": 4, "n_out_links": 4, "cycle_min_s": 120.0, "cycle_max_s": 129.49, "n_hours": 24}}, {"type": "Feature", "geometry": {"type": "Point", "coordinates": [141.448631, 43.027051]}, "properties": {"jartic_id": "3001-190", "intersection": 190, "in_cordon": false, "n_phases": 6, "n_in_links": 3, "n_out_links": 2, "cycle_min_s": 120.0, "cycle_max_s": 127.07, "n_hours": 24}}, {"type": "Feature", "geometry": {"type": "Point", "coordinates": [141.458676, 43.021849]}, "properties": {"jartic_id": "3001-191", "intersection": 191, "in_cordon": false, "n_phases": 5, "n_in_links": 3, "n_out_links": 3, "cycle_min_s": 95.0, "cycle_max_s": 113.75, "n_hours": 24}}, {"type": "Feature", "geometry": {"type": "Point", "coordinates": [141.471863, 43.051809]}, "properties": {"jartic_id": "3001-192", "intersection": 192, "in_cordon": false, "n_phases": 6, "n_in_links": 4, "n_out_links": 4, "cycle_min_s": 105.0, "cycle_max_s": 118.54, "n_hours": 24}}, {"type": "Feature", "geometry": {"type": "Point", "coordinates": [141.524251, 43.093514]}, "properties": {"jartic_id": "3001-193", "intersection": 193, "in_cordon": false, "n_phases": 3, "n_in_links": 4, "n_out_links": 4, "cycle_min_s": 95.0, "cycle_max_s": 120.0, "n_hours": 24}}, {"type": "Feature", "geometry": {"type": "Point", "coordinates": [141.540979, 43.10523]}, "properties": {"jartic_id": "3001-194", "intersection": 194, "in_cordon": false, "n_phases": 4, "n_in_links": 4, "n_out_links": 4, "cycle_min_s": 110.0, "cycle_max_s": 120.0, "n_hours": 24}}, {"type": "Feature", "geometry": {"type": "Point", "coordinates": [141.521573, 43.091615]}, "properties": {"jartic_id": "3001-195", "intersection": 195, "in_cordon": false, "n_phases": 6, "n_in_links": 4, "n_out_links": 4, "cycle_min_s": 95.0, "cycle_max_s": 120.0, "n_hours": 24}}, {"type": "Feature", "geometry": {"type": "Point", "coordinates": [141.553887, 43.114896]}, "properties": {"jartic_id": "3001-196", "intersection": 196, "in_cordon": false, "n_phases": 2, "n_in_links": 3, "n_out_links": 3, "cycle_min_s": 95.0, "cycle_max_s": 120.0, "n_hours": 24}}, {"type": "Feature", "geometry": {"type": "Point", "coordinates": [141.520359, 43.095405]}, "properties": {"jartic_id": "3001-197", "intersection": 197, "in_cordon": false, "n_phases": 3, "n_in_links": 4, "n_out_links": 4, "cycle_min_s": 70.0, "cycle_max_s": 109.44, "n_hours": 24}}, {"type": "Feature", "geometry": {"type": "Point", "coordinates": [141.537108, 43.107155]}, "properties": {"jartic_id": "3001-198", "intersection": 198, "in_cordon": false, "n_phases": 3, "n_in_links": 4, "n_out_links": 4, "cycle_min_s": 110.46, "cycle_max_s": 120.0, "n_hours": 24}}, {"type": "Feature", "geometry": {"type": "Point", "coordinates": [141.648468, 42.817108]}, "properties": {"jartic_id": "3001-199", "intersection": 199, "in_cordon": false, "n_phases": 6, "n_in_links": 4, "n_out_links": 4, "cycle_min_s": 115.0, "cycle_max_s": 140.0, "n_hours": 24}}, {"type": "Feature", "geometry": {"type": "Point", "coordinates": [141.643425, 42.82264]}, "properties": {"jartic_id": "3001-200", "intersection": 200, "in_cordon": false, "n_phases": 5, "n_in_links": 4, "n_out_links": 4, "cycle_min_s": 85.0, "cycle_max_s": 120.94, "n_hours": 24}}, {"type": "Feature", "geometry": {"type": "Point", "coordinates": [141.575201, 42.882689]}, "properties": {"jartic_id": "3001-201", "intersection": 201, "in_cordon": false, "n_phases": 4, "n_in_links": 3, "n_out_links": 3, "cycle_min_s": 80.0, "cycle_max_s": 96.86, "n_hours": 24}}, {"type": "Feature", "geometry": {"type": "Point", "coordinates": [141.564098, 42.895904]}, "properties": {"jartic_id": "3001-202", "intersection": 202, "in_cordon": false, "n_phases": 5, "n_in_links": 3, "n_out_links": 3, "cycle_min_s": 90.0, "cycle_max_s": 98.42, "n_hours": 24}}, {"type": "Feature", "geometry": {"type": "Point", "coordinates": [141.652662, 42.826399]}, "properties": {"jartic_id": "3001-203", "intersection": 203, "in_cordon": false, "n_phases": 5, "n_in_links": 3, "n_out_links": 3, "cycle_min_s": 110.0, "cycle_max_s": 125.68, "n_hours": 24}}, {"type": "Feature", "geometry": {"type": "Point", "coordinates": [141.61382, 42.846761]}, "properties": {"jartic_id": "3001-204", "intersection": 204, "in_cordon": false, "n_phases": 4, "n_in_links": 3, "n_out_links": 3, "cycle_min_s": 110.0, "cycle_max_s": 135.0, "n_hours": 24}}, {"type": "Feature", "geometry": {"type": "Point", "coordinates": [141.66182, 42.819039]}, "properties": {"jartic_id": "3001-205", "intersection": 205, "in_cordon": false, "n_phases": 4, "n_in_links": 3, "n_out_links": 3, "cycle_min_s": 110.0, "cycle_max_s": 125.68, "n_hours": 24}}, {"type": "Feature", "geometry": {"type": "Point", "coordinates": [141.757334, 43.198876]}, "properties": {"jartic_id": "3001-206", "intersection": 206, "in_cordon": false, "n_phases": 4, "n_in_links": 4, "n_out_links": 4, "cycle_min_s": 80.0, "cycle_max_s": 108.94, "n_hours": 24}}, {"type": "Feature", "geometry": {"type": "Point", "coordinates": [141.762818, 43.193147]}, "properties": {"jartic_id": "3001-207", "intersection": 207, "in_cordon": false, "n_phases": 4, "n_in_links": 4, "n_out_links": 4, "cycle_min_s": 90.0, "cycle_max_s": 118.29, "n_hours": 24}}, {"type": "Feature", "geometry": {"type": "Point", "coordinates": [141.79945, 43.231335]}, "properties": {"jartic_id": "3001-208", "intersection": 208, "in_cordon": false, "n_phases": 4, "n_in_links": 3, "n_out_links": 3, "cycle_min_s": 100.79, "cycle_max_s": 119.12, "n_hours": 24}}, {"type": "Feature", "geometry": {"type": "Point", "coordinates": [141.785446, 43.208802]}, "properties": {"jartic_id": "3001-209", "intersection": 209, "in_cordon": false, "n_phases": 4, "n_in_links": 4, "n_out_links": 4, "cycle_min_s": 90.0, "cycle_max_s": 118.51, "n_hours": 24}}, {"type": "Feature", "geometry": {"type": "Point", "coordinates": [141.763513, 43.1815]}, "properties": {"jartic_id": "3001-210", "intersection": 210, "in_cordon": false, "n_phases": 5, "n_in_links": 2, "n_out_links": 2, "cycle_min_s": 110.0, "cycle_max_s": 118.78, "n_hours": 24}}, {"type": "Feature", "geometry": {"type": "Point", "coordinates": [140.995995, 43.195086]}, "properties": {"jartic_id": "3001-211", "intersection": 211, "in_cordon": false, "n_phases": 5, "n_in_links": 4, "n_out_links": 4, "cycle_min_s": 80.0, "cycle_max_s": 126.25, "n_hours": 24}}, {"type": "Feature", "geometry": {"type": "Point", "coordinates": [141.002214, 43.185912]}, "properties": {"jartic_id": "3001-212", "intersection": 212, "in_cordon": false, "n_phases": 4, "n_in_links": 4, "n_out_links": 4, "cycle_min_s": 100.0, "cycle_max_s": 126.25, "n_hours": 24}}, {"type": "Feature", "geometry": {"type": "Point", "coordinates": [141.006929, 43.182537]}, "properties": {"jartic_id": "3001-213", "intersection": 213, "in_cordon": false, "n_phases": 6, "n_in_links": 4, "n_out_links": 4, "cycle_min_s": 100.0, "cycle_max_s": 126.25, "n_hours": 24}}, {"type": "Feature", "geometry": {"type": "Point", "coordinates": [141.057467, 43.175906]}, "properties": {"jartic_id": "3001-214", "intersection": 214, "in_cordon": false, "n_phases": 4, "n_in_links": 3, "n_out_links": 3, "cycle_min_s": 90.0, "cycle_max_s": 130.0, "n_hours": 24}}, {"type": "Feature", "geometry": {"type": "Point", "coordinates": [140.992725, 43.202477]}, "properties": {"jartic_id": "3001-215", "intersection": 215, "in_cordon": false, "n_phases": 4, "n_in_links": 3, "n_out_links": 3, "cycle_min_s": 130.0, "cycle_max_s": 141.89, "n_hours": 24}}, {"type": "Feature", "geometry": {"type": "Point", "coordinates": [141.019787, 43.181588]}, "properties": {"jartic_id": "3001-216", "intersection": 216, "in_cordon": false, "n_phases": 5, "n_in_links": 3, "n_out_links": 3, "cycle_min_s": 130.0, "cycle_max_s": 150.0, "n_hours": 24}}, {"type": "Feature", "geometry": {"type": "Point", "coordinates": [141.163401, 43.138772]}, "properties": {"jartic_id": "3001-217", "intersection": 217, "in_cordon": false, "n_phases": 5, "n_in_links": 3, "n_out_links": 3, "cycle_min_s": 105.0, "cycle_max_s": 130.0, "n_hours": 24}}, {"type": "Feature", "geometry": {"type": "Point", "coordinates": [141.008576, 43.191176]}, "properties": {"jartic_id": "3001-218", "intersection": 218, "in_cordon": false, "n_phases": 4, "n_in_links": 5, "n_out_links": 4, "cycle_min_s": 90.0, "cycle_max_s": 129.12, "n_hours": 24}}, {"type": "Feature", "geometry": {"type": "Point", "coordinates": [140.859068, 43.19864]}, "properties": {"jartic_id": "3001-219", "intersection": 219, "in_cordon": false, "n_phases": 4, "n_in_links": 2, "n_out_links": 2, "cycle_min_s": 60.17, "cycle_max_s": 100.14, "n_hours": 24}}, {"type": "Feature", "geometry": {"type": "Point", "coordinates": [140.986949, 43.184429]}, "properties": {"jartic_id": "3001-220", "intersection": 220, "in_cordon": false, "n_phases": 4, "n_in_links": 3, "n_out_links": 3, "cycle_min_s": 80.0, "cycle_max_s": 104.64, "n_hours": 24}}, {"type": "Feature", "geometry": {"type": "Point", "coordinates": [141.015842, 43.185279]}, "properties": {"jartic_id": "3001-221", "intersection": 221, "in_cordon": false, "n_phases": 5, "n_in_links": 3, "n_out_links": 3, "cycle_min_s": 110.0, "cycle_max_s": 129.38, "n_hours": 24}}, {"type": "Feature", "geometry": {"type": "Point", "coordinates": [141.001193, 43.199898]}, "properties": {"jartic_id": "3001-222", "intersection": 222, "in_cordon": false, "n_phases": 4, "n_in_links": 4, "n_out_links": 4, "cycle_min_s": 100.0, "cycle_max_s": 129.12, "n_hours": 24}}, {"type": "Feature", "geometry": {"type": "Point", "coordinates": [140.915973, 43.210677]}, "properties": {"jartic_id": "3001-223", "intersection": 223, "in_cordon": false, "n_phases": 4, "n_in_links": 3, "n_out_links": 3, "cycle_min_s": 80.0, "cycle_max_s": 94.9, "n_hours": 24}}, {"type": "Feature", "geometry": {"type": "Point", "coordinates": [140.954163, 43.218477]}, "properties": {"jartic_id": "3001-224", "intersection": 224, "in_cordon": false, "n_phases": 3, "n_in_links": 3, "n_out_links": 3, "cycle_min_s": 105.0, "cycle_max_s": 114.39, "n_hours": 24}}, {"type": "Feature", "geometry": {"type": "Point", "coordinates": [140.793152, 43.187114]}, "properties": {"jartic_id": "3001-225", "intersection": 225, "in_cordon": false, "n_phases": 6, "n_in_links": 3, "n_out_links": 3, "cycle_min_s": 95.0, "cycle_max_s": 123.29, "n_hours": 24}}, {"type": "Feature", "geometry": {"type": "Point", "coordinates": [140.794115, 43.192521]}, "properties": {"jartic_id": "3001-226", "intersection": 226, "in_cordon": false, "n_phases": 4, "n_in_links": 3, "n_out_links": 3, "cycle_min_s": 90.0, "cycle_max_s": 123.29, "n_hours": 24}}, {"type": "Feature", "geometry": {"type": "Point", "coordinates": [140.784717, 43.195379]}, "properties": {"jartic_id": "3001-227", "intersection": 227, "in_cordon": false, "n_phases": 5, "n_in_links": 3, "n_out_links": 3, "cycle_min_s": 110.0, "cycle_max_s": 126.74, "n_hours": 24}}, {"type": "Feature", "geometry": {"type": "Point", "coordinates": [141.577929, 42.626289]}, "properties": {"jartic_id": "3001-228", "intersection": 228, "in_cordon": false, "n_phases": 4, "n_in_links": 4, "n_out_links": 4, "cycle_min_s": 90.0, "cycle_max_s": 104.71, "n_hours": 24}}, {"type": "Feature", "geometry": {"type": "Point", "coordinates": [141.616528, 42.649294]}, "properties": {"jartic_id": "3001-229", "intersection": 229, "in_cordon": false, "n_phases": 4, "n_in_links": 4, "n_out_links": 4, "cycle_min_s": 110.0, "cycle_max_s": 138.51, "n_hours": 24}}, {"type": "Feature", "geometry": {"type": "Point", "coordinates": [141.618465, 42.643129]}, "properties": {"jartic_id": "3001-230", "intersection": 230, "in_cordon": false, "n_phases": 5, "n_in_links": 3, "n_out_links": 3, "cycle_min_s": 126.17, "cycle_max_s": 144.99, "n_hours": 24}}, {"type": "Feature", "geometry": {"type": "Point", "coordinates": [141.604689, 42.6505]}, "properties": {"jartic_id": "3001-231", "intersection": 231, "in_cordon": false, "n_phases": 5, "n_in_links": 4, "n_out_links": 4, "cycle_min_s": 120.0, "cycle_max_s": 130.0, "n_hours": 24}}]}